{"type":"FeatureCollection","features":[{"type":"Feature","properties":{"fips":"29001","name":"Adair"},"geometry":{"type":"Polygon","coordinates":[[[-92.856,40.1211],[-92.8562,40.0373],[-92.3451,40.0372],[-92.35,40.3465],[-92.8556,40.3427],[-92.856,40.1211]]]}},{"type":"Feature","properties":{"fips":"29003","name":"Andrew"},"geometry":{"type":"Polygon","coordinates":[[[-95.0603,40.071],[-95.0575,40.0648],[-95.0468,40.064],[-95.0394,40.0597],[-95.0355,40.0518],[-95.0376,40.0495],[-95.034,40.0488],[-95.0354,40.0449],[-95.0205,40.052],[-95.0105,40.0468],[-95.016,40.0427],[-95.0085,40.0399],[-95.0111,40.037],[-95.0068,40.0359],[-95.0097,40.0317],[-95.0043,40.0273],[-95.0108,40.02],[-95.0117,40.0144],[-95.0078,40.0084],[-95.0109,40.0013],[-95.0037,39.9962],[-95.0053,39.9803],[-94.9943,39.9712],[-95.003,39.9583],[-95.0007,39.9566],[-94.9961,39.9612],[-94.9914,39.9515],[-94.997,39.9455],[-94.9908,39.9476],[-94.9881,39.945],[-95.0025,39.9326],[-95.0054,39.9274],[-95.0019,39.9222],[-95.0067,39.9234],[-94.9934,39.915],[-94.9934,39.8978],[-94.9777,39.8975],[-94.9593,39.9017],[-94.9345,39.8934],[-94.9279,39.8861],[-94.9273,39.8803],[-94.9407,39.8644],[-94.9426,39.8566],[-94.9377,39.8498],[-94.9169,39.8361],[-94.8869,39.8331],[-94.8787,39.8265],[-94.8766,39.8209],[-94.6028,39.8199],[-94.6059,40.1261],[-95.0431,40.1301],[-95.048,40.1277],[-95.0393,40.127],[-95.0439,40.1255],[-95.0406,40.1238],[-95.0457,40.1196],[-95.0362,40.1145],[-95.0429,40.1124],[-95.0336,40.1087],[-95.0375,40.1037],[-95.0418,40.1053],[-95.0443,40.1022],[-95.0387,40.101],[-95.0443,40.0983],[-95.0406,40.0968],[-95.043,40.0951],[-95.0401,40.0919],[-95.0435,40.0889],[-95.0435,40.0784],[-95.0493,40.0774],[-95.0475,40.0731],[-95.0522,40.0765],[-95.0517,40.0711],[-95.0591,40.0747],[-95.0576,40.0704],[-95.0603,40.071]]]}},{"type":"Feature","properties":{"fips":"29005","name":"Atchison"},"geometry":{"type":"Polygon","coordinates":[[[-95.7735,40.5782],[-95.7747,40.5736],[-95.7634,40.5508],[-95.7687,40.5341],[-95.7571,40.526],[-95.7373,40.5239],[-95.7224,40.5281],[-95.7143,40.5272],[-95.7086,40.5216],[-95.6972,40.5285],[-95.695,40.5331],[-95.6973,40.537],[-95.6941,40.5569],[-95.6787,40.5626],[-95.6718,40.5626],[-95.6534,40.5419],[-95.6557,40.5236],[-95.6617,40.5173],[-95.7,40.5053],[-95.6947,40.4936],[-95.6968,40.4788],[-95.6947,40.4715],[-95.6717,40.4567],[-95.6582,40.4419],[-95.6556,40.4347],[-95.6615,40.4159],[-95.6591,40.4087],[-95.6439,40.3868],[-95.641,40.3664],[-95.6237,40.3466],[-95.6252,40.3343],[-95.6566,40.3195],[-95.658,40.3127],[-95.6543,40.3079],[-95.6423,40.306],[-95.6104,40.314],[-95.5818,40.2996],[-95.5622,40.2974],[-95.551,40.2859],[-95.5563,40.2708],[-95.5548,40.2645],[-95.1806,40.2617],[-95.1777,40.4789],[-95.202,40.4791],[-95.2023,40.5785],[-95.7656,40.5852],[-95.7735,40.5782]]]}},{"type":"Feature","properties":{"fips":"29007","name":"Audrain"},"geometry":{"type":"Polygon","coordinates":[[[-92.3138,39.25],[-92.3145,39.2465],[-92.1044,39.2398],[-92.1104,39.0642],[-91.634,39.0591],[-91.6296,39.1479],[-91.409,39.1425],[-91.4382,39.3187],[-91.7185,39.3245],[-91.718,39.3391],[-91.7225,39.3393],[-92.0922,39.3408],[-92.31,39.3478],[-92.3138,39.25]]]}},{"type":"Feature","properties":{"fips":"29009","name":"Barry"},"geometry":{"type":"Polygon","coordinates":[[[-94.0771,36.5038],[-94.0771,36.4987],[-93.5843,36.4989],[-93.5738,36.82],[-93.6129,36.8206],[-93.611,36.9228],[-94.0627,36.9318],[-94.0771,36.5038]]]}},{"type":"Feature","properties":{"fips":"29011","name":"Barton"},"geometry":{"type":"Polygon","coordinates":[[[-94.6176,37.3676],[-94.6175,37.3642],[-94.456,37.3583],[-94.0821,37.3493],[-94.0735,37.6397],[-94.6176,37.6536],[-94.6176,37.3676]]]}},{"type":"Feature","properties":{"fips":"29013","name":"Bates"},"geometry":{"type":"Polygon","coordinates":[[[-94.6141,38.0673],[-94.6141,38.0601],[-94.2406,38.0508],[-94.2394,38.0442],[-94.2305,38.0458],[-94.2408,38.0394],[-94.2337,38.032],[-94.2423,38.0326],[-94.2454,38.0292],[-94.2366,38.026],[-94.2252,38.027],[-94.227,38.0345],[-94.2239,38.0403],[-94.2155,38.0337],[-94.2095,38.0522],[-94.1954,38.0537],[-94.2007,38.0465],[-94.1961,38.0338],[-94.1918,38.0448],[-94.1694,38.0495],[-94.1574,38.0571],[-94.1501,38.0539],[-94.1322,38.0582],[-94.1247,38.0502],[-94.1155,38.0484],[-94.1188,38.0422],[-94.1099,38.0373],[-94.1056,38.0378],[-94.1019,38.0481],[-94.0938,38.0397],[-94.0864,38.0404],[-94.0886,38.0359],[-94.0852,38.0325],[-94.0807,38.0316],[-94.0694,38.0368],[-94.0613,38.0316],[-94.0583,38.0366],[-94.0499,38.214],[-94.0752,38.2145],[-94.0657,38.4471],[-94.0781,38.4481],[-94.0767,38.4518],[-94.0804,38.4497],[-94.0864,38.4559],[-94.09,38.4527],[-94.0935,38.4585],[-94.0972,38.4546],[-94.1092,38.4558],[-94.11,38.4527],[-94.1328,38.4538],[-94.1477,38.4507],[-94.1514,38.4534],[-94.1523,38.4499],[-94.1681,38.4502],[-94.1686,38.4472],[-94.1738,38.4498],[-94.1706,38.4468],[-94.1741,38.4455],[-94.1849,38.4461],[-94.1896,38.4506],[-94.1877,38.4487],[-94.19,38.4473],[-94.2005,38.4454],[-94.2062,38.4471],[-94.2075,38.4508],[-94.212,38.4468],[-94.2162,38.4468],[-94.2174,38.4498],[-94.2233,38.4483],[-94.2229,38.4529],[-94.2295,38.453],[-94.2261,38.4533],[-94.2288,38.4548],[-94.2263,38.4591],[-94.2384,38.4558],[-94.2398,38.4601],[-94.2572,38.4501],[-94.2598,38.4529],[-94.264,38.4498],[-94.2671,38.4505],[-94.2661,38.4547],[-94.2818,38.4589],[-94.29,38.4654],[-94.2899,38.46],[-94.2975,38.4589],[-94.3052,38.4672],[-94.3103,38.4653],[-94.3139,38.4694],[-94.3121,38.4714],[-94.6129,38.4776],[-94.6141,38.0673]]]}},{"type":"Feature","properties":{"fips":"29015","name":"Benton"},"geometry":{"type":"Polygon","coordinates":[[[-93.5235,38.2072],[-93.5117,38.2065],[-93.5133,38.1995],[-93.4973,38.1991],[-93.5039,38.0731],[-93.0652,38.0625],[-93.0591,38.1857],[-93.0822,38.1865],[-93.069,38.4337],[-93.0688,38.4423],[-93.0721,38.4423],[-93.0674,38.5301],[-93.2905,38.5354],[-93.2919,38.5063],[-93.5127,38.5125],[-93.5151,38.4545],[-93.512,38.4544],[-93.512,38.4468],[-93.5235,38.2072]]]}},{"type":"Feature","properties":{"fips":"29017","name":"Bollinger"},"geometry":{"type":"Polygon","coordinates":[[[-90.2229,37.1006],[-90.2232,37.0865],[-90.1104,37.0859],[-90.1112,37.0412],[-89.9957,37.0401],[-89.9959,37.0547],[-89.9592,37.0544],[-89.9596,37.1273],[-89.8666,37.1262],[-89.8668,37.219],[-89.8633,37.219],[-89.8626,37.2488],[-89.8611,37.5993],[-90.1468,37.5974],[-90.1385,37.5412],[-90.1442,37.4901],[-90.1457,37.3121],[-90.2177,37.315],[-90.2229,37.1006]]]}},{"type":"Feature","properties":{"fips":"29019","name":"Boone"},"geometry":{"type":"Polygon","coordinates":[[[-92.5702,38.9797],[-92.566,38.9743],[-92.5592,38.9732],[-92.5401,38.9537],[-92.515,38.9381],[-92.4762,38.9045],[-92.4745,38.8986],[-92.4796,38.8774],[-92.4567,38.8603],[-92.4399,38.8313],[-92.4212,38.8198],[-92.3941,38.8196],[-92.3844,38.8155],[-92.3796,38.8015],[-92.3825,38.7909],[-92.3908,38.7806],[-92.4071,38.7726],[-92.4086,38.7582],[-92.3999,38.7422],[-92.3878,38.7354],[-92.3602,38.7301],[-92.3441,38.7151],[-92.3433,38.7051],[-92.3614,38.692],[-92.3636,38.6862],[-92.3609,38.6818],[-92.3453,38.6749],[-92.2934,38.6666],[-92.2758,38.6582],[-92.2591,38.6453],[-92.2294,38.646],[-92.2207,38.6432],[-92.2185,38.6891],[-92.2254,38.6995],[-92.2157,38.7025],[-92.2164,38.7145],[-92.2122,38.7201],[-92.202,38.7209],[-92.1924,38.7261],[-92.1944,38.7362],[-92.1821,38.7384],[-92.1812,38.7417],[-92.1862,38.7476],[-92.176,38.7539],[-92.1723,38.7639],[-92.1631,38.7649],[-92.1624,38.776],[-92.1678,38.7768],[-92.1638,38.7798],[-92.1642,38.7839],[-92.1583,38.7848],[-92.1601,38.7902],[-92.1557,38.7958],[-92.1581,38.8022],[-92.1519,38.8037],[-92.1514,38.7987],[-92.1457,38.7961],[-92.1511,38.8057],[-92.1429,38.8072],[-92.1433,38.8127],[-92.1352,38.8139],[-92.1382,38.8177],[-92.1458,38.8155],[-92.1428,38.8216],[-92.1528,38.8261],[-92.1455,38.8328],[-92.1508,38.8387],[-92.1424,38.8414],[-92.1404,38.8455],[-92.1487,38.8466],[-92.1456,38.8544],[-92.15,38.8515],[-92.1542,38.8535],[-92.1476,38.8584],[-92.1493,38.8662],[-92.1622,38.8665],[-92.1587,38.8696],[-92.1561,38.8807],[-92.1498,38.8798],[-92.1481,38.8852],[-92.1548,38.8843],[-92.1588,38.8947],[-92.1637,38.8976],[-92.169,38.8964],[-92.1641,38.907],[-92.1555,38.9144],[-92.1545,38.9179],[-92.1607,38.9252],[-92.1539,38.9245],[-92.1528,38.9466],[-92.1468,38.9586],[-92.1488,38.961],[-92.1434,38.9677],[-92.1463,38.981],[-92.1419,38.9804],[-92.1383,38.9852],[-92.1366,38.9996],[-92.1403,39.0015],[-92.1405,39.0067],[-92.1331,39.0126],[-92.1306,39.0253],[-92.1407,39.0274],[-92.1408,39.0301],[-92.136,39.0324],[-92.1335,39.0435],[-92.1285,39.0485],[-92.1319,39.0508],[-92.1315,39.0645],[-92.1104,39.0642],[-92.1044,39.2398],[-92.4302,39.2488],[-92.5201,39.077],[-92.5605,39.0023],[-92.5652,38.9986],[-92.5622,38.9959],[-92.5654,38.9907],[-92.5637,38.9866],[-92.5584,38.9884],[-92.5565,38.9854],[-92.5702,38.9797]]]}},{"type":"Feature","properties":{"fips":"29021","name":"Buchanan"},"geometry":{"type":"Polygon","coordinates":[[[-95.1131,39.5591],[-95.1093,39.5423],[-95.1014,39.5333],[-94.6012,39.5302],[-94.6028,39.8199],[-94.8766,39.8209],[-94.8763,39.8069],[-94.8841,39.7942],[-94.893,39.7911],[-94.9256,39.7898],[-94.9327,39.7863],[-94.9358,39.7789],[-94.9297,39.7691],[-94.9123,39.7593],[-94.8992,39.7613],[-94.8815,39.7713],[-94.8671,39.7717],[-94.8607,39.7631],[-94.8594,39.7537],[-94.8629,39.743],[-94.8701,39.7346],[-94.8841,39.7268],[-94.9026,39.7242],[-94.9183,39.7288],[-94.9447,39.7444],[-94.9526,39.746],[-94.9601,39.7431],[-94.9712,39.7293],[-94.9685,39.7074],[-94.9713,39.6864],[-94.9841,39.6778],[-95.0183,39.6729],[-95.0276,39.6655],[-95.0495,39.6379],[-95.0552,39.6217],[-95.0464,39.5996],[-95.0548,39.5825],[-95.0693,39.5762],[-95.0895,39.581],[-95.0991,39.5797],[-95.1075,39.5738],[-95.1131,39.5591]]]}},{"type":"Feature","properties":{"fips":"29023","name":"Butler"},"geometry":{"type":"Polygon","coordinates":[[[-90.6786,36.9265],[-90.6797,36.8831],[-90.6612,36.8829],[-90.6626,36.8115],[-90.6275,36.811],[-90.6284,36.6795],[-90.5922,36.6794],[-90.593,36.5924],[-90.5748,36.5919],[-90.5762,36.4984],[-90.2177,36.4978],[-90.2191,36.5049],[-90.2168,36.5077],[-90.2208,36.5078],[-90.2166,36.5157],[-90.2199,36.522],[-90.2136,36.5229],[-90.2167,36.5259],[-90.2153,36.5297],[-90.2052,36.5303],[-90.2116,36.5344],[-90.21,36.542],[-90.2053,36.5451],[-90.2042,36.5409],[-90.2001,36.5413],[-90.1982,36.5485],[-90.1913,36.5497],[-90.1937,36.5471],[-90.1921,36.5439],[-90.1857,36.5485],[-90.1885,36.5546],[-90.1828,36.5604],[-90.1842,36.5658],[-90.1807,36.5695],[-90.1851,36.5734],[-90.1826,36.5761],[-90.1876,36.5788],[-90.1808,36.5821],[-90.1851,36.5822],[-90.187,36.5876],[-90.1811,36.5881],[-90.1842,36.5903],[-90.1817,36.5967],[-90.1737,36.5933],[-90.1773,36.6002],[-90.1763,36.6052],[-90.1735,36.6052],[-90.1759,36.6007],[-90.1686,36.6054],[-90.1629,36.6042],[-90.1686,36.615],[-90.1635,36.6192],[-90.1619,36.6144],[-90.1588,36.6142],[-90.156,36.6172],[-90.1612,36.6215],[-90.1547,36.6197],[-90.157,36.6264],[-90.1516,36.6218],[-90.1476,36.6235],[-90.1489,36.6279],[-90.1531,36.6265],[-90.1555,36.6298],[-90.1466,36.6296],[-90.1496,36.6335],[-90.1441,36.6338],[-90.1423,36.6382],[-90.1494,36.6407],[-90.1388,36.6424],[-90.1397,36.6483],[-90.1448,36.6495],[-90.1431,36.6521],[-90.147,36.6575],[-90.1373,36.6592],[-90.1345,36.6625],[-90.1368,36.6674],[-90.1429,36.6665],[-90.1404,36.6709],[-90.1493,36.672],[-90.1444,36.6734],[-90.1491,36.6792],[-90.1421,36.6805],[-90.1492,36.6842],[-90.1399,36.6869],[-90.1468,36.6937],[-90.1405,36.6933],[-90.1398,36.6961],[-90.1434,36.6989],[-90.1463,36.6952],[-90.1458,36.6989],[-90.1535,36.7027],[-90.1484,36.7106],[-90.1531,36.7093],[-90.1516,36.7163],[-90.156,36.716],[-90.1581,36.723],[-90.1645,36.7249],[-90.1613,36.7258],[-90.165,36.7319],[-90.1625,36.7342],[-90.1691,36.7356],[-90.1681,36.7423],[-90.177,36.7422],[-90.1778,36.7457],[-90.1725,36.7475],[-90.1766,36.7482],[-90.1753,36.752],[-90.1874,36.7558],[-90.1829,36.7593],[-90.1906,36.7632],[-90.1894,36.772],[-90.1964,36.7695],[-90.1986,36.7733],[-90.2062,36.7739],[-90.201,36.7772],[-90.2035,36.7864],[-90.1997,36.787],[-90.2026,36.7936],[-90.1976,36.7927],[-90.2037,36.8034],[-90.1979,36.8041],[-90.2028,36.8088],[-90.2091,36.8086],[-90.2081,36.8135],[-90.2163,36.8146],[-90.2103,36.8176],[-90.2123,36.8207],[-90.2176,36.8182],[-90.2218,36.8203],[-90.2175,36.8265],[-90.2244,36.8324],[-90.2224,36.8387],[-90.219,36.8386],[-90.2163,36.8428],[-90.2211,36.8457],[-90.2223,36.8505],[-90.2248,36.8467],[-90.2298,36.8501],[-90.225,36.8545],[-90.2318,36.8535],[-90.2289,36.8563],[-90.2305,36.8587],[-90.2351,36.8578],[-90.2382,36.8629],[-90.2409,36.8594],[-90.2398,36.8644],[-90.2541,36.8712],[-90.2567,36.8797],[-90.2532,36.8766],[-90.2481,36.8784],[-90.253,36.8819],[-90.252,36.8877],[-90.2452,36.8925],[-90.2497,36.8922],[-90.2474,36.8962],[-90.2533,36.8991],[-90.2548,36.9065],[-90.2598,36.9076],[-90.2485,36.9108],[-90.2575,36.912],[-90.2586,36.922],[-90.3527,36.9267],[-90.6786,36.9265]]]}},{"type":"Feature","properties":{"fips":"29025","name":"Caldwell"},"geometry":{"type":"Polygon","coordinates":[[[-94.2077,39.5416],[-94.2084,39.5272],[-93.7592,39.5246],[-93.759,39.7847],[-94.0932,39.7859],[-94.2058,39.789],[-94.2077,39.5416]]]}},{"type":"Feature","properties":{"fips":"29027","name":"Callaway"},"geometry":{"type":"Polygon","coordinates":[[[-92.2254,38.6995],[-92.2185,38.6891],[-92.2207,38.6432],[-92.2098,38.6372],[-92.2048,38.6303],[-92.2007,38.6017],[-92.1693,38.5817],[-92.139,38.5694],[-92.1106,38.5617],[-92.0681,38.5574],[-92.0156,38.5674],[-91.9775,38.5896],[-91.9439,38.5971],[-91.8937,38.6341],[-91.8774,38.6577],[-91.8549,38.6703],[-91.8144,38.6818],[-91.7597,38.6852],[-91.7323,38.7059],[-91.702,38.7078],[-91.6655,38.702],[-91.6472,38.7034],[-91.634,39.0591],[-92.1315,39.0645],[-92.1319,39.0508],[-92.1285,39.0485],[-92.1335,39.0435],[-92.136,39.0324],[-92.1408,39.0301],[-92.1407,39.0274],[-92.1306,39.0253],[-92.1331,39.0126],[-92.1405,39.0067],[-92.1403,39.0015],[-92.1366,38.9996],[-92.1383,38.9852],[-92.1419,38.9804],[-92.1463,38.981],[-92.1434,38.9677],[-92.1488,38.961],[-92.1468,38.9586],[-92.1528,38.9466],[-92.1539,38.9245],[-92.1607,38.9252],[-92.1545,38.9179],[-92.1555,38.9144],[-92.1641,38.907],[-92.169,38.8964],[-92.1637,38.8976],[-92.1588,38.8947],[-92.1548,38.8843],[-92.1481,38.8852],[-92.1498,38.8798],[-92.1561,38.8807],[-92.1587,38.8696],[-92.1622,38.8665],[-92.1493,38.8662],[-92.1476,38.8584],[-92.1542,38.8535],[-92.15,38.8515],[-92.1456,38.8544],[-92.1487,38.8466],[-92.1404,38.8455],[-92.1424,38.8414],[-92.1508,38.8387],[-92.1455,38.8328],[-92.1528,38.8261],[-92.1428,38.8216],[-92.1458,38.8155],[-92.1382,38.8177],[-92.1352,38.8139],[-92.1433,38.8127],[-92.1429,38.8072],[-92.1511,38.8057],[-92.1457,38.7961],[-92.1514,38.7987],[-92.1519,38.8037],[-92.1581,38.8022],[-92.1557,38.7958],[-92.1601,38.7902],[-92.1583,38.7848],[-92.1642,38.7839],[-92.1638,38.7798],[-92.1678,38.7768],[-92.1624,38.776],[-92.1631,38.7649],[-92.1723,38.7639],[-92.176,38.7539],[-92.1862,38.7476],[-92.1812,38.7417],[-92.1821,38.7384],[-92.1944,38.7362],[-92.1924,38.7261],[-92.202,38.7209],[-92.2122,38.7201],[-92.2164,38.7145],[-92.2157,38.7025],[-92.2254,38.6995]]]}},{"type":"Feature","properties":{"fips":"29029","name":"Camden"},"geometry":{"type":"Polygon","coordinates":[[[-93.0822,38.1865],[-93.0591,38.1857],[-93.0724,37.9026],[-92.8554,37.8957],[-92.6202,37.8925],[-92.6187,37.8738],[-92.6144,37.8715],[-92.6147,37.8635],[-92.6087,37.8561],[-92.5992,37.8518],[-92.6001,37.8403],[-92.5893,37.8345],[-92.5854,37.828],[-92.5716,37.8236],[-92.5645,37.8123],[-92.5653,37.807],[-92.5491,37.8005],[-92.5396,37.8021],[-92.5317,37.8111],[-92.5175,37.8132],[-92.5175,37.8109],[-92.5135,37.8109],[-92.5015,37.8277],[-92.4804,37.829],[-92.453,37.8241],[-92.4495,37.8354],[-92.4265,37.8511],[-92.4218,37.8587],[-92.4092,37.8592],[-92.4063,38.0212],[-92.516,38.0223],[-92.5156,38.0369],[-92.5339,38.0375],[-92.5336,38.0518],[-92.5524,38.0521],[-92.5521,38.0663],[-92.5703,38.0666],[-92.5697,38.0959],[-92.588,38.0961],[-92.5877,38.1106],[-92.5968,38.1108],[-92.5964,38.1398],[-92.6053,38.1399],[-92.6047,38.1707],[-92.6413,38.1716],[-92.6401,38.213],[-92.6756,38.2128],[-92.6918,38.221],[-92.7072,38.224],[-92.7186,38.2201],[-92.7367,38.2207],[-92.756,38.2125],[-92.7645,38.1896],[-92.963,38.1972],[-92.9566,38.2037],[-92.9388,38.2085],[-92.932,38.2162],[-92.932,38.2202],[-92.9378,38.2252],[-92.9569,38.2295],[-92.9637,38.2255],[-92.9757,38.2035],[-92.9866,38.1908],[-93.0062,38.186],[-93.0169,38.1913],[-93.0223,38.1986],[-93.02,38.2048],[-93.012,38.2102],[-92.9849,38.2114],[-92.9842,38.2197],[-93.0057,38.2227],[-93.0165,38.2449],[-93.0463,38.2678],[-93.0611,38.2716],[-93.0777,38.2631],[-93.0822,38.1865]]]}},{"type":"Feature","properties":{"fips":"29031","name":"Cape Girardeau"},"geometry":{"type":"Polygon","coordinates":[[[-89.8668,37.219],[-89.8666,37.1262],[-89.7582,37.126],[-89.7585,37.1406],[-89.7218,37.1406],[-89.722,37.1551],[-89.7038,37.155],[-89.7042,37.184],[-89.6858,37.184],[-89.686,37.1985],[-89.6674,37.1988],[-89.6674,37.2061],[-89.6495,37.2062],[-89.6497,37.2183],[-89.6205,37.2183],[-89.6203,37.233],[-89.5835,37.2329],[-89.5835,37.2403],[-89.5465,37.2402],[-89.5464,37.2473],[-89.5205,37.2473],[-89.5183,37.2436],[-89.5108,37.2463],[-89.5071,37.244],[-89.5038,37.2475],[-89.4987,37.2451],[-89.4902,37.2472],[-89.4887,37.2515],[-89.5068,37.2685],[-89.5183,37.2855],[-89.5118,37.3108],[-89.4842,37.3356],[-89.4476,37.3405],[-89.4328,37.3471],[-89.4282,37.3562],[-89.4213,37.3921],[-89.4398,37.4372],[-89.4755,37.4714],[-89.5164,37.5356],[-89.5217,37.5662],[-89.5293,37.5642],[-89.5386,37.5743],[-89.5413,37.5718],[-89.5384,37.5695],[-89.5434,37.567],[-89.5554,37.5768],[-89.5815,37.571],[-89.585,37.5742],[-89.5822,37.577],[-89.5835,37.5819],[-89.5927,37.5751],[-89.5965,37.579],[-89.5928,37.583],[-89.6036,37.5921],[-89.6028,37.6032],[-89.6072,37.6029],[-89.6089,37.5974],[-89.6165,37.5926],[-89.6243,37.5937],[-89.6258,37.5885],[-89.6345,37.5906],[-89.6362,37.5869],[-89.6399,37.5872],[-89.6416,37.5922],[-89.6377,37.5977],[-89.6389,37.6036],[-89.6475,37.5977],[-89.665,37.5984],[-89.6644,37.5907],[-89.6722,37.5834],[-89.6757,37.5916],[-89.6777,37.5845],[-89.6811,37.5846],[-89.6864,37.5884],[-89.6841,37.5935],[-89.687,37.5956],[-89.6976,37.5942],[-89.7096,37.5993],[-89.7148,37.5968],[-89.7146,37.5902],[-89.7193,37.5879],[-89.7221,37.5954],[-89.735,37.6016],[-89.7407,37.5992],[-89.7361,37.5912],[-89.7561,37.5923],[-89.7607,37.5878],[-89.7655,37.5916],[-89.7821,37.5918],[-89.7863,37.5987],[-89.7918,37.5925],[-89.8015,37.5927],[-89.7975,37.6004],[-89.8002,37.6064],[-89.8027,37.6025],[-89.8166,37.5999],[-89.8611,37.5993],[-89.8626,37.2488],[-89.8633,37.219],[-89.8668,37.219]]]}},{"type":"Feature","properties":{"fips":"29033","name":"Carroll"},"geometry":{"type":"Polygon","coordinates":[[[-93.7592,39.5246],[-93.7585,39.207],[-93.739,39.2097],[-93.7112,39.2063],[-93.7001,39.2097],[-93.6835,39.2301],[-93.6619,39.2358],[-93.6561,39.2412],[-93.6572,39.2459],[-93.6505,39.2482],[-93.6434,39.2454],[-93.6364,39.2472],[-93.6284,39.2432],[-93.585,39.2404],[-93.5689,39.2286],[-93.5632,39.22],[-93.5515,39.217],[-93.5296,39.215],[-93.5002,39.218],[-93.4893,39.2263],[-93.4866,39.2339],[-93.4962,39.2649],[-93.4954,39.2755],[-93.4858,39.2888],[-93.4733,39.2933],[-93.4599,39.2894],[-93.4507,39.273],[-93.4442,39.2685],[-93.4139,39.2678],[-93.4071,39.2651],[-93.403,39.258],[-93.4152,39.2418],[-93.4152,39.2349],[-93.4019,39.2269],[-93.3821,39.2288],[-93.3367,39.2481],[-93.3291,39.2551],[-93.329,39.2655],[-93.3444,39.2894],[-93.3441,39.2972],[-93.3369,39.307],[-93.3248,39.3106],[-93.2942,39.3092],[-93.2777,39.3115],[-93.2669,39.3193],[-93.2678,39.3251],[-93.2638,39.331],[-93.2527,39.3388],[-93.2403,39.3364],[-93.2301,39.3279],[-93.2217,39.3313],[-93.1896,39.3704],[-93.1902,39.3818],[-93.201,39.3989],[-93.1931,39.4093],[-93.1775,39.4117],[-93.1672,39.4073],[-93.152,39.3872],[-93.1396,39.3786],[-93.1252,39.3777],[-93.1045,39.3837],[-93.1157,39.3895],[-93.1185,39.4025],[-93.1148,39.411],[-93.1206,39.4179],[-93.1391,39.4235],[-93.1548,39.4217],[-93.1655,39.4363],[-93.1835,39.4325],[-93.2049,39.4404],[-93.1978,39.4343],[-93.2059,39.4297],[-93.2136,39.4305],[-93.2107,39.44],[-93.2174,39.4433],[-93.2221,39.44],[-93.2163,39.4315],[-93.2192,39.4304],[-93.2288,39.4363],[-93.2299,39.4472],[-93.2234,39.4471],[-93.2195,39.4508],[-93.2245,39.4588],[-93.2216,39.4677],[-93.2246,39.4721],[-93.2392,39.4709],[-93.2375,39.4644],[-93.2474,39.4581],[-93.245,39.4506],[-93.2469,39.443],[-93.2546,39.4451],[-93.2495,39.4525],[-93.2502,39.4597],[-93.254,39.4619],[-93.2581,39.4629],[-93.2717,39.4569],[-93.2758,39.4583],[-93.2749,39.4651],[-93.2643,39.4612],[-93.2616,39.47],[-93.2663,39.4784],[-93.2766,39.4861],[-93.2765,39.4967],[-93.268,39.4965],[-93.2659,39.5],[-93.283,39.5195],[-93.2757,39.5268],[-93.2767,39.531],[-93.2843,39.5335],[-93.2859,39.5379],[-93.2772,39.5395],[-93.2711,39.5344],[-93.266,39.5417],[-93.2536,39.5435],[-93.2664,39.5461],[-93.267,39.5485],[-93.258,39.5552],[-93.27,39.5602],[-93.2666,39.5736],[-93.271,39.5771],[-93.2694,39.5843],[-93.2751,39.5901],[-93.2699,39.5999],[-93.2781,39.6156],[-93.7584,39.6114],[-93.7592,39.5246]]]}},{"type":"Feature","properties":{"fips":"29035","name":"Carter"},"geometry":{"type":"Polygon","coordinates":[[[-91.2245,36.8404],[-91.2248,36.8257],[-91.0253,36.8221],[-91.0079,36.8243],[-91.0077,36.8201],[-90.8957,36.8129],[-90.6626,36.8115],[-90.6612,36.8829],[-90.6797,36.8831],[-90.6786,36.9273],[-90.6969,36.9272],[-90.6954,36.9708],[-90.7134,36.9711],[-90.713,37.0004],[-90.7309,37.0004],[-90.7297,37.0495],[-90.9645,37.0536],[-90.9636,37.0974],[-91.0,37.0976],[-90.9999,37.1004],[-91.036,37.0937],[-91.0667,37.0938],[-91.0654,37.0885],[-91.1097,37.0867],[-91.1097,37.0841],[-91.2172,37.0862],[-91.2245,36.8404]]]}},{"type":"Feature","properties":{"fips":"29037","name":"Cass"},"geometry":{"type":"Polygon","coordinates":[[[-94.6127,38.4832],[-94.6129,38.4776],[-94.3121,38.4714],[-94.3139,38.4694],[-94.3103,38.4653],[-94.3052,38.4672],[-94.2975,38.4589],[-94.2899,38.46],[-94.29,38.4654],[-94.2818,38.4589],[-94.2661,38.4547],[-94.2671,38.4505],[-94.2598,38.4529],[-94.2572,38.4501],[-94.2398,38.4601],[-94.2384,38.4558],[-94.2263,38.4591],[-94.2288,38.4548],[-94.2261,38.4533],[-94.2295,38.453],[-94.2229,38.4529],[-94.2233,38.4483],[-94.2174,38.4498],[-94.2162,38.4468],[-94.212,38.4468],[-94.2075,38.4508],[-94.2062,38.4471],[-94.2005,38.4454],[-94.19,38.4473],[-94.1877,38.4487],[-94.1896,38.4506],[-94.1849,38.4461],[-94.1741,38.4455],[-94.1706,38.4468],[-94.1738,38.4498],[-94.1686,38.4472],[-94.1681,38.4502],[-94.1523,38.4499],[-94.1514,38.4534],[-94.1477,38.4507],[-94.1328,38.4538],[-94.11,38.4527],[-94.1092,38.4558],[-94.0972,38.4546],[-94.0935,38.4585],[-94.09,38.4527],[-94.0864,38.4559],[-94.0804,38.4497],[-94.0767,38.4518],[-94.0781,38.4481],[-94.0657,38.4471],[-94.065,38.4658],[-94.0678,38.466],[-94.0643,38.5674],[-94.1197,38.5687],[-94.1164,38.6555],[-94.1294,38.6559],[-94.1191,38.8332],[-94.2876,38.8351],[-94.608,38.8472],[-94.6127,38.4832]]]}},{"type":"Feature","properties":{"fips":"29039","name":"Cedar"},"geometry":{"type":"Polygon","coordinates":[[[-94.0735,37.6397],[-94.0754,37.5816],[-93.616,37.5727],[-93.6095,37.7418],[-93.6324,37.7423],[-93.6284,37.8294],[-93.8117,37.8348],[-93.8086,37.8928],[-94.0657,37.901],[-94.0733,37.7606],[-94.0733,37.7557],[-94.0687,37.7556],[-94.0735,37.6397]]]}},{"type":"Feature","properties":{"fips":"29041","name":"Chariton"},"geometry":{"type":"Polygon","coordinates":[[[-93.2874,39.6833],[-93.2793,39.6816],[-93.2832,39.6788],[-93.2805,39.6777],[-93.2847,39.673],[-93.282,39.6708],[-93.2859,39.6668],[-93.2734,39.6548],[-93.2776,39.6518],[-93.2831,39.6564],[-93.2834,39.6514],[-93.2604,39.6267],[-93.2658,39.62],[-93.2773,39.6229],[-93.281,39.6191],[-93.2699,39.5999],[-93.2751,39.5901],[-93.2694,39.5843],[-93.271,39.5771],[-93.2666,39.5736],[-93.27,39.5602],[-93.258,39.5552],[-93.267,39.5485],[-93.2664,39.5461],[-93.2536,39.5435],[-93.266,39.5417],[-93.2711,39.5344],[-93.2772,39.5395],[-93.2859,39.5379],[-93.2843,39.5335],[-93.2767,39.531],[-93.2757,39.5268],[-93.283,39.5195],[-93.2659,39.5],[-93.268,39.4965],[-93.2765,39.4967],[-93.2766,39.4861],[-93.2663,39.4784],[-93.2616,39.47],[-93.2643,39.4612],[-93.2749,39.4651],[-93.2758,39.4583],[-93.2717,39.4569],[-93.2581,39.4629],[-93.254,39.4619],[-93.2502,39.4597],[-93.2495,39.4525],[-93.2546,39.4451],[-93.2469,39.443],[-93.245,39.4506],[-93.2474,39.4581],[-93.2375,39.4644],[-93.2392,39.4709],[-93.2281,39.4732],[-93.2216,39.4677],[-93.2248,39.4605],[-93.2195,39.4508],[-93.2234,39.4471],[-93.2299,39.4472],[-93.2301,39.4379],[-93.2192,39.4304],[-93.2163,39.4346],[-93.2221,39.44],[-93.2174,39.4433],[-93.2107,39.44],[-93.2136,39.4305],[-93.2059,39.4297],[-93.1978,39.4343],[-93.2049,39.4404],[-93.1835,39.4325],[-93.1655,39.4363],[-93.1548,39.4217],[-93.1391,39.4235],[-93.1172,39.4159],[-93.1148,39.411],[-93.1185,39.4025],[-93.1143,39.387],[-93.0926,39.3816],[-93.0803,39.3718],[-93.0764,39.3607],[-93.0769,39.3425],[-93.0615,39.3256],[-93.0448,39.3177],[-93.0238,39.3131],[-92.9716,39.3156],[-92.9581,39.3111],[-92.9533,39.2985],[-92.958,39.2881],[-92.9578,39.2793],[-92.9474,39.2701],[-92.9236,39.2634],[-92.9167,39.2579],[-92.9157,39.25],[-92.92,39.233],[-92.9117,39.2239],[-92.8928,39.2225],[-92.8629,39.2364],[-92.8507,39.2331],[-92.8492,39.2262],[-92.7904,39.3436],[-92.7074,39.3216],[-92.6983,39.5761],[-92.6966,39.6104],[-92.6921,39.6103],[-92.6893,39.6981],[-93.0828,39.7067],[-93.261,39.7037],[-93.267,39.7036],[-93.2648,39.6976],[-93.2731,39.6953],[-93.2853,39.6852],[-93.2834,39.6834],[-93.2874,39.6833]]]}},{"type":"Feature","properties":{"fips":"29043","name":"Christian"},"geometry":{"type":"Polygon","coordinates":[[[-93.6102,37.0031],[-93.6101,36.9958],[-93.3375,36.9925],[-93.342,36.8173],[-92.9093,36.8092],[-92.9029,37.0852],[-93.6089,37.0982],[-93.6102,37.0031]]]}},{"type":"Feature","properties":{"fips":"29045","name":"Clark"},"geometry":{"type":"Polygon","coordinates":[[[-91.9508,40.2576],[-91.4973,40.2488],[-91.4905,40.2595],[-91.4931,40.2753],[-91.4899,40.286],[-91.4718,40.3173],[-91.4621,40.3424],[-91.4448,40.3632],[-91.4194,40.3783],[-91.4412,40.3863],[-91.4516,40.376],[-91.4639,40.3757],[-91.4659,40.3784],[-91.4634,40.3854],[-91.4803,40.3818],[-91.4845,40.3839],[-91.491,40.3935],[-91.4885,40.4043],[-91.4981,40.4019],[-91.5246,40.4108],[-91.5266,40.4199],[-91.5191,40.4328],[-91.5291,40.4343],[-91.5336,40.4383],[-91.5233,40.4501],[-91.5251,40.4578],[-91.5527,40.4588],[-91.5747,40.4657],[-91.5815,40.4729],[-91.5908,40.4923],[-91.6128,40.5024],[-91.6214,40.5101],[-91.618,40.534],[-91.6201,40.5408],[-91.6817,40.553],[-91.6887,40.5574],[-91.6916,40.5649],[-91.6864,40.5809],[-91.7168,40.5985],[-91.7291,40.6136],[-91.9431,40.6058],[-91.9508,40.2576]]]}},{"type":"Feature","properties":{"fips":"29047","name":"Clay"},"geometry":{"type":"Polygon","coordinates":[[[-94.6083,39.1179],[-94.6039,39.1109],[-94.5957,39.11],[-94.555,39.1274],[-94.5341,39.1459],[-94.5064,39.1509],[-94.4954,39.1504],[-94.4846,39.1455],[-94.4616,39.1204],[-94.4304,39.138],[-94.4023,39.1648],[-94.3999,39.1748],[-94.409,39.1921],[-94.4072,39.1953],[-94.4013,39.197],[-94.3897,39.1935],[-94.3785,39.1704],[-94.3694,39.1637],[-94.3636,39.1637],[-94.3462,39.1739],[-94.3282,39.1912],[-94.3089,39.2274],[-94.2899,39.2371],[-94.25,39.2348],[-94.2384,39.2282],[-94.2296,39.2154],[-94.2125,39.2071],[-94.2106,39.4547],[-94.6008,39.4562],[-94.6017,39.1596],[-94.5907,39.1548],[-94.5884,39.1499],[-94.5899,39.139],[-94.6083,39.1179]]]}},{"type":"Feature","properties":{"fips":"29049","name":"Clinton"},"geometry":{"type":"Polygon","coordinates":[[[-94.6023,39.7472],[-94.6008,39.4562],[-94.2106,39.4547],[-94.206,39.7458],[-94.6023,39.7472]]]}},{"type":"Feature","properties":{"fips":"29051","name":"Cole"},"geometry":{"type":"Polygon","coordinates":[[[-92.4879,38.4499],[-92.4952,38.4278],[-92.4035,38.4253],[-92.4084,38.3413],[-92.3026,38.3366],[-92.2888,38.3388],[-92.2685,38.3283],[-92.2478,38.3229],[-92.233,38.3277],[-92.2247,38.3357],[-92.1945,38.3355],[-92.1932,38.3708],[-92.1807,38.3784],[-92.1606,38.377],[-92.1382,38.3828],[-92.1218,38.3913],[-92.1163,38.3988],[-92.1153,38.407],[-92.1216,38.4173],[-92.1493,38.4312],[-92.1577,38.439],[-92.1689,38.4668],[-92.1674,38.4697],[-92.161,38.4733],[-92.1473,38.4741],[-92.1276,38.4609],[-92.1104,38.4574],[-92.0737,38.4667],[-92.0435,38.4665],[-92.0266,38.4726],[-92.0151,38.481],[-92.0083,38.4971],[-92.0271,38.5287],[-92.0277,38.5466],[-92.0189,38.559],[-92.0035,38.5603],[-92.009,38.5709],[-92.0589,38.5577],[-92.0981,38.5599],[-92.1244,38.565],[-92.1602,38.5775],[-92.2007,38.6017],[-92.2035,38.6083],[-92.2031,38.6266],[-92.2157,38.6413],[-92.2294,38.646],[-92.2591,38.6453],[-92.2758,38.6582],[-92.2934,38.6666],[-92.3373,38.6731],[-92.3578,38.6795],[-92.363,38.6887],[-92.3433,38.7051],[-92.3441,38.7151],[-92.3602,38.7301],[-92.3949,38.7391],[-92.4879,38.4499]]]}},{"type":"Feature","properties":{"fips":"29053","name":"Cooper"},"geometry":{"type":"Polygon","coordinates":[[[-93.0595,38.7009],[-93.06,38.6931],[-92.9505,38.6858],[-92.7267,38.6841],[-92.6171,38.68],[-92.6167,38.6945],[-92.4984,38.9221],[-92.515,38.9381],[-92.5364,38.9509],[-92.5621,38.972],[-92.5978,38.9677],[-92.6467,38.9759],[-92.693,38.976],[-92.7194,38.9843],[-92.7459,38.9811],[-92.7831,38.9716],[-92.8526,38.9822],[-92.8795,39.0032],[-92.9097,39.0156],[-92.935,39.0589],[-92.9346,39.0645],[-93.0482,38.9726],[-93.0595,38.7009]]]}},{"type":"Feature","properties":{"fips":"29055","name":"Crawford"},"geometry":{"type":"Polygon","coordinates":[[[-91.5353,38.2109],[-91.5344,38.1526],[-91.525,38.1524],[-91.5288,37.789],[-91.3083,37.7872],[-91.3107,37.7],[-91.147,37.6972],[-91.1465,37.7408],[-91.1,37.74],[-91.094,38.0013],[-91.0958,38.2041],[-91.3676,38.204],[-91.3675,38.2097],[-91.5353,38.2109]]]}},{"type":"Feature","properties":{"fips":"29057","name":"Dade"},"geometry":{"type":"Polygon","coordinates":[[[-94.0821,37.3493],[-94.0838,37.2909],[-93.6258,37.282],[-93.616,37.5727],[-94.0754,37.5816],[-94.0821,37.3493]]]}},{"type":"Feature","properties":{"fips":"29059","name":"Dallas"},"geometry":{"type":"Polygon","coordinates":[[[-93.1907,37.7445],[-93.1914,37.73],[-93.1732,37.7297],[-93.1825,37.4172],[-93.0734,37.415],[-93.0716,37.4874],[-92.8535,37.484],[-92.8463,37.721],[-92.8599,37.7212],[-92.8554,37.8957],[-93.1826,37.9042],[-93.1907,37.7445]]]}},{"type":"Feature","properties":{"fips":"29061","name":"Daviess"},"geometry":{"type":"Polygon","coordinates":[[[-94.2185,40.0494],[-94.2188,40.0349],[-94.2035,40.0345],[-94.2058,39.789],[-94.0932,39.7859],[-93.759,39.7847],[-93.7648,40.0311],[-93.764,40.1329],[-94.2167,40.1366],[-94.2185,40.0494]]]}},{"type":"Feature","properties":{"fips":"29063","name":"DeKalb"},"geometry":{"type":"Polygon","coordinates":[[[-94.6054,40.0392],[-94.6023,39.7472],[-94.206,39.7458],[-94.2035,40.0345],[-94.33,40.0393],[-94.6054,40.0392]]]}},{"type":"Feature","properties":{"fips":"29065","name":"Dent"},"geometry":{"type":"Polygon","coordinates":[[[-91.8084,37.6783],[-91.8091,37.5989],[-91.7548,37.5988],[-91.755,37.4241],[-91.2119,37.4153],[-91.211,37.5019],[-91.3142,37.5051],[-91.3125,37.5928],[-91.1551,37.5881],[-91.1533,37.6973],[-91.3107,37.7],[-91.3083,37.7872],[-91.8062,37.7913],[-91.8084,37.6783]]]}},{"type":"Feature","properties":{"fips":"29067","name":"Douglas"},"geometry":{"type":"Polygon","coordinates":[[[-92.909,36.8199],[-92.9093,36.8092],[-92.096,36.794],[-92.0887,37.0562],[-92.9033,37.0707],[-92.909,36.8199]]]}},{"type":"Feature","properties":{"fips":"29069","name":"Dunklin"},"geometry":{"type":"Polygon","coordinates":[[[-90.3779,35.9957],[-89.9594,35.999],[-89.9613,36.3888],[-89.9725,36.3896],[-89.9635,36.4124],[-89.9661,36.4158],[-89.9624,36.4423],[-89.9573,36.4555],[-89.9608,36.4668],[-89.9566,36.4806],[-89.9608,36.5001],[-89.9605,36.5275],[-89.954,36.5501],[-89.9636,36.6134],[-89.9633,36.6255],[-89.9588,36.6293],[-90.1544,36.6304],[-90.1531,36.6265],[-90.1489,36.6279],[-90.1476,36.6235],[-90.1516,36.6218],[-90.157,36.6264],[-90.1547,36.6197],[-90.1612,36.6215],[-90.156,36.6172],[-90.1588,36.6142],[-90.1619,36.6144],[-90.1635,36.6192],[-90.1686,36.615],[-90.1629,36.6042],[-90.1686,36.6054],[-90.1759,36.6007],[-90.1735,36.6052],[-90.1763,36.6052],[-90.1773,36.6002],[-90.1737,36.5933],[-90.1817,36.5967],[-90.1842,36.5903],[-90.1811,36.5881],[-90.187,36.5876],[-90.1851,36.5822],[-90.1808,36.5821],[-90.1876,36.5788],[-90.1826,36.5761],[-90.1851,36.5734],[-90.1807,36.5695],[-90.1842,36.5658],[-90.1828,36.5604],[-90.1885,36.5546],[-90.1857,36.5485],[-90.1921,36.5439],[-90.1937,36.5471],[-90.1913,36.5497],[-90.1982,36.5485],[-90.2001,36.5413],[-90.2042,36.5409],[-90.2053,36.5451],[-90.21,36.542],[-90.2116,36.5344],[-90.2052,36.5303],[-90.2153,36.5297],[-90.2167,36.5259],[-90.2136,36.5229],[-90.2199,36.522],[-90.2166,36.5157],[-90.2208,36.5078],[-90.2168,36.5077],[-90.2191,36.5049],[-90.2177,36.4978],[-90.1525,36.498],[-90.155,36.4936],[-90.159,36.4937],[-90.156,36.4904],[-90.1595,36.4876],[-90.1571,36.4843],[-90.1594,36.4801],[-90.1437,36.476],[-90.1423,36.4721],[-90.1463,36.4695],[-90.1529,36.4709],[-90.1558,36.4636],[-90.1425,36.4634],[-90.1373,36.4554],[-90.1341,36.4366],[-90.1376,36.4319],[-90.1427,36.4312],[-90.1441,36.4258],[-90.1395,36.4215],[-90.1342,36.4228],[-90.1385,36.414],[-90.131,36.4151],[-90.1095,36.4041],[-90.0804,36.4008],[-90.0645,36.3821],[-90.0663,36.3593],[-90.0777,36.3495],[-90.0741,36.3429],[-90.0772,36.3413],[-90.0782,36.3365],[-90.0756,36.334],[-90.082,36.3221],[-90.0693,36.3132],[-90.064,36.303],[-90.0778,36.2883],[-90.0759,36.2815],[-90.0837,36.2723],[-90.1149,36.2656],[-90.1182,36.2535],[-90.1245,36.2442],[-90.1306,36.2421],[-90.1247,36.2355],[-90.1264,36.2294],[-90.1324,36.2264],[-90.1422,36.2275],[-90.1561,36.2137],[-90.1612,36.2158],[-90.1829,36.2051],[-90.1882,36.2054],[-90.1972,36.196],[-90.2017,36.1961],[-90.2006,36.1922],[-90.2044,36.1869],[-90.2113,36.1834],[-90.2204,36.1848],[-90.2293,36.1736],[-90.2354,36.1592],[-90.2314,36.1539],[-90.2314,36.1473],[-90.2356,36.1395],[-90.2443,36.1365],[-90.2532,36.1274],[-90.2606,36.1274],[-90.2663,36.1206],[-90.2931,36.1144],[-90.2999,36.0982],[-90.3192,36.09],[-90.3207,36.0713],[-90.3333,36.0675],[-90.3371,36.0478],[-90.3479,36.0419],[-90.3517,36.0253],[-90.3779,35.9957]]]}},{"type":"Feature","properties":{"fips":"29071","name":"Franklin"},"geometry":{"type":"Polygon","coordinates":[[[-91.3692,38.6993],[-91.3654,38.3315],[-91.3676,38.204],[-91.0088,38.2041],[-90.9702,38.2067],[-90.7802,38.2041],[-90.7376,38.4159],[-90.7323,38.6393],[-90.7424,38.6346],[-90.7507,38.6251],[-90.7564,38.6107],[-90.7736,38.5946],[-90.813,38.5856],[-90.8419,38.566],[-90.8733,38.5539],[-90.896,38.5406],[-90.9268,38.5343],[-90.9924,38.5551],[-91.0141,38.566],[-91.0372,38.5986],[-91.0559,38.6083],[-91.0773,38.6093],[-91.1251,38.5977],[-91.183,38.6079],[-91.225,38.6208],[-91.2285,38.6302],[-91.2269,38.6407],[-91.233,38.6513],[-91.2598,38.6666],[-91.3131,38.7067],[-91.3244,38.7084],[-91.3491,38.6954],[-91.3692,38.6993]]]}},{"type":"Feature","properties":{"fips":"29073","name":"Gasconade"},"geometry":{"type":"Polygon","coordinates":[[[-91.6448,38.1555],[-91.5344,38.1526],[-91.5353,38.2109],[-91.3675,38.2097],[-91.3654,38.3315],[-91.3692,38.6993],[-91.3973,38.7084],[-91.4387,38.7094],[-91.4576,38.7063],[-91.4531,38.7093],[-91.4723,38.7076],[-91.4878,38.7131],[-91.5011,38.7047],[-91.5026,38.695],[-91.5522,38.6763],[-91.5877,38.6822],[-91.6197,38.6985],[-91.6404,38.7038],[-91.6448,38.1555]]]}},{"type":"Feature","properties":{"fips":"29075","name":"Gentry"},"geometry":{"type":"Polygon","coordinates":[[[-94.6059,40.1261],[-94.6066,40.0392],[-94.33,40.0393],[-94.2188,40.0349],[-94.2143,40.3843],[-94.5985,40.3867],[-94.6059,40.1261]]]}},{"type":"Feature","properties":{"fips":"29077","name":"Greene"},"geometry":{"type":"Polygon","coordinates":[[[-93.6244,37.3247],[-93.6258,37.282],[-93.6051,37.2815],[-93.6089,37.0982],[-93.0653,37.0887],[-93.0615,37.2698],[-93.0768,37.2704],[-93.0734,37.415],[-93.6212,37.4274],[-93.6244,37.3247]]]}},{"type":"Feature","properties":{"fips":"29079","name":"Grundy"},"geometry":{"type":"Polygon","coordinates":[[[-93.7649,40.102],[-93.762,39.9596],[-93.362,39.9676],[-93.362,40.0331],[-93.3666,40.0331],[-93.3672,40.2663],[-93.7633,40.264],[-93.7649,40.102]]]}},{"type":"Feature","properties":{"fips":"29081","name":"Harrison"},"geometry":{"type":"Polygon","coordinates":[[[-94.2322,40.5719],[-94.2316,40.4704],[-94.2146,40.4705],[-94.2167,40.1366],[-93.764,40.1329],[-93.7648,40.4725],[-93.7745,40.4723],[-93.7743,40.5776],[-94.2322,40.5719]]]}},{"type":"Feature","properties":{"fips":"29083","name":"Henry"},"geometry":{"type":"Polygon","coordinates":[[[-94.0737,38.2581],[-94.0752,38.2145],[-93.5573,38.2011],[-93.5708,38.2154],[-93.5695,38.2189],[-93.5609,38.2208],[-93.5386,38.2055],[-93.5235,38.2072],[-93.512,38.4468],[-93.512,38.4544],[-93.5151,38.4545],[-93.511,38.5562],[-94.0643,38.5674],[-94.0678,38.466],[-94.065,38.4658],[-94.0737,38.2581]]]}},{"type":"Feature","properties":{"fips":"29085","name":"Hickory"},"geometry":{"type":"Polygon","coordinates":[[[-93.5732,37.828],[-93.5741,37.8133],[-93.1879,37.8027],[-93.1826,37.9042],[-93.0724,37.9026],[-93.0652,38.0625],[-93.5039,38.0731],[-93.5121,37.9135],[-93.5687,37.9149],[-93.5732,37.828]]]}},{"type":"Feature","properties":{"fips":"29087","name":"Holt"},"geometry":{"type":"Polygon","coordinates":[[[-95.5548,40.2645],[-95.521,40.2501],[-95.4934,40.2496],[-95.4775,40.2427],[-95.4697,40.2279],[-95.4714,40.2173],[-95.4823,40.2007],[-95.4792,40.1857],[-95.4607,40.1692],[-95.4363,40.1587],[-95.4287,40.1356],[-95.4192,40.1306],[-95.4044,40.129],[-95.3954,40.1228],[-95.3942,40.1083],[-95.4076,40.098],[-95.4106,40.0915],[-95.4099,40.0743],[-95.4216,40.059],[-95.4168,40.0432],[-95.4073,40.0331],[-95.3872,40.0268],[-95.3569,40.0315],[-95.3466,40.0283],[-95.3362,40.0191],[-95.3153,40.0121],[-95.3085,40.0022],[-95.3071,39.9891],[-95.3025,39.9844],[-95.2699,39.9694],[-95.2503,39.9486],[-95.2368,39.9439],[-95.2164,39.944],[-95.2044,39.9389],[-95.2007,39.9282],[-95.2062,39.9096],[-95.2019,39.9041],[-95.1795,39.9001],[-95.1598,39.907],[-95.1497,39.9059],[-95.1438,39.9019],[-95.1406,39.8817],[-95.1282,39.8742],[-95.085,39.8619],[-95.0378,39.8655],[-95.0279,39.8715],[-95.0252,39.8897],[-95.0187,39.8974],[-95.0084,39.9006],[-94.9934,39.8978],[-94.9934,39.915],[-95.0067,39.9234],[-95.0019,39.9222],[-95.0054,39.9274],[-95.0025,39.9326],[-94.9881,39.945],[-94.9908,39.9476],[-94.997,39.9455],[-94.9914,39.9515],[-94.9961,39.9612],[-95.0007,39.9566],[-95.003,39.9583],[-94.9943,39.9712],[-95.0053,39.9803],[-95.0037,39.9962],[-95.0109,40.0013],[-95.0078,40.0084],[-95.0117,40.0144],[-95.0108,40.02],[-95.0043,40.0273],[-95.0097,40.0317],[-95.0068,40.0359],[-95.0111,40.037],[-95.0085,40.0399],[-95.016,40.0427],[-95.0105,40.0468],[-95.0205,40.052],[-95.0354,40.0449],[-95.034,40.0488],[-95.0376,40.0495],[-95.0355,40.0518],[-95.0394,40.0597],[-95.0468,40.064],[-95.0575,40.0648],[-95.0607,40.0699],[-95.0576,40.0704],[-95.0591,40.0747],[-95.0517,40.0711],[-95.0522,40.0765],[-95.0475,40.0731],[-95.0493,40.0774],[-95.0435,40.0784],[-95.0435,40.0889],[-95.0401,40.0919],[-95.043,40.0951],[-95.0406,40.0968],[-95.0443,40.0983],[-95.0387,40.101],[-95.0443,40.1022],[-95.0418,40.1053],[-95.0375,40.1037],[-95.0336,40.1087],[-95.042,40.111],[-95.0417,40.1138],[-95.0362,40.1145],[-95.0457,40.1196],[-95.0406,40.1238],[-95.0439,40.1255],[-95.0393,40.127],[-95.0464,40.1264],[-95.0479,40.1284],[-95.0429,40.1308],[-95.0472,40.1338],[-95.0529,40.1328],[-95.0506,40.1388],[-95.054,40.1354],[-95.0555,40.1415],[-95.06,40.1385],[-95.0602,40.1451],[-95.0643,40.1484],[-95.0595,40.1481],[-95.0589,40.1504],[-95.0657,40.151],[-95.0602,40.1613],[-95.0672,40.1677],[-95.0606,40.1717],[-95.0635,40.1762],[-95.0681,40.1752],[-95.066,40.1778],[-95.0712,40.1796],[-95.0749,40.1888],[-95.0683,40.2045],[-95.0638,40.2059],[-95.0673,40.2129],[-95.0679,40.2258],[-95.0579,40.2391],[-95.0671,40.2473],[-95.0708,40.2454],[-95.0666,40.2431],[-95.0736,40.2434],[-95.0719,40.2475],[-95.0756,40.2515],[-95.0678,40.2554],[-95.0727,40.2576],[-95.0716,40.2609],[-95.5548,40.2645]]]}},{"type":"Feature","properties":{"fips":"29089","name":"Howard"},"geometry":{"type":"Polygon","coordinates":[[[-92.9453,39.1147],[-92.9428,39.1035],[-92.9275,39.0979],[-92.9118,39.097],[-92.9074,39.0927],[-92.9074,39.0842],[-92.9108,39.0798],[-92.9305,39.0685],[-92.9351,39.061],[-92.9145,39.0212],[-92.9025,39.0111],[-92.8795,39.0032],[-92.8526,38.9822],[-92.7831,38.9716],[-92.7459,38.9811],[-92.7194,38.9843],[-92.693,38.976],[-92.6467,38.9759],[-92.5978,38.9677],[-92.5707,38.9719],[-92.5581,38.9707],[-92.5702,38.9797],[-92.5565,38.9854],[-92.5584,38.9884],[-92.5637,38.9866],[-92.5654,38.9907],[-92.5622,38.9959],[-92.5652,38.9986],[-92.5605,39.0023],[-92.5201,39.077],[-92.4302,39.2488],[-92.7904,39.3436],[-92.8591,39.203],[-92.8752,39.187],[-92.8967,39.1759],[-92.9048,39.1662],[-92.9061,39.1476],[-92.9117,39.1382],[-92.9223,39.1309],[-92.9416,39.1259],[-92.9453,39.1147]]]}},{"type":"Feature","properties":{"fips":"29091","name":"Howell"},"geometry":{"type":"Polygon","coordinates":[[[-92.1204,36.4989],[-91.6723,36.4995],[-91.6723,36.6066],[-91.678,36.6067],[-91.6783,36.6251],[-91.6749,36.7677],[-91.6742,36.7878],[-91.66,36.7875],[-91.6556,37.0489],[-92.0887,37.0562],[-92.096,36.794],[-92.1123,36.7942],[-92.1204,36.4989]]]}},{"type":"Feature","properties":{"fips":"29093","name":"Iron"},"geometry":{"type":"Polygon","coordinates":[[[-91.1544,37.6172],[-91.1551,37.5881],[-91.1007,37.5878],[-90.9868,37.6039],[-90.7687,37.603],[-90.773,37.375],[-90.7497,37.3728],[-90.7536,37.2701],[-90.6618,37.2748],[-90.6423,37.2722],[-90.5506,37.2726],[-90.5474,37.5984],[-90.5351,37.5994],[-90.535,37.645],[-90.6479,37.6428],[-90.6451,37.7348],[-90.7621,37.7385],[-90.8741,37.7342],[-90.9825,37.7403],[-91.1465,37.7408],[-91.147,37.6972],[-91.1533,37.6973],[-91.1544,37.6172]]]}},{"type":"Feature","properties":{"fips":"29095","name":"Jackson"},"geometry":{"type":"Polygon","coordinates":[[[-94.6083,38.9818],[-94.608,38.8472],[-94.2876,38.8351],[-94.1188,38.8332],[-94.1048,39.1435],[-94.1337,39.1712],[-94.1858,39.181],[-94.1857,39.188],[-94.1702,39.2045],[-94.1694,39.2106],[-94.1735,39.2138],[-94.1847,39.2143],[-94.2049,39.2065],[-94.2125,39.2071],[-94.2296,39.2154],[-94.2384,39.2282],[-94.25,39.2348],[-94.2951,39.2355],[-94.3046,39.2314],[-94.314,39.2213],[-94.3223,39.1986],[-94.3377,39.1807],[-94.3636,39.1637],[-94.3694,39.1637],[-94.3785,39.1704],[-94.3897,39.1935],[-94.4013,39.197],[-94.4072,39.1953],[-94.409,39.1921],[-94.3999,39.1748],[-94.4023,39.1648],[-94.4304,39.138],[-94.4616,39.1204],[-94.4846,39.1455],[-94.4954,39.1504],[-94.5064,39.1509],[-94.5341,39.1459],[-94.555,39.1274],[-94.5957,39.11],[-94.6074,39.1134],[-94.6083,38.9818]]]}},{"type":"Feature","properties":{"fips":"29097","name":"Jasper"},"geometry":{"type":"Polygon","coordinates":[[[-94.6185,37.1812],[-94.6179,37.0568],[-94.0592,37.0481],[-94.0523,37.2901],[-94.0838,37.2909],[-94.0821,37.3493],[-94.6175,37.3642],[-94.6185,37.1812]]]}},{"type":"Feature","properties":{"fips":"29099","name":"Jefferson"},"geometry":{"type":"Polygon","coordinates":[[[-90.7735,38.2407],[-90.7802,38.2041],[-90.6814,38.1027],[-90.6762,38.0951],[-90.6854,38.0911],[-90.6848,38.0863],[-90.6636,38.0877],[-90.6605,38.0964],[-90.6574,38.0973],[-90.6514,38.0921],[-90.662,38.0862],[-90.6592,38.0818],[-90.6129,38.0716],[-90.6124,38.0646],[-90.6211,38.0521],[-90.6215,38.0404],[-90.6128,38.017],[-90.6165,38.0135],[-90.6249,38.0128],[-90.6281,38.0077],[-90.5833,38.0035],[-90.416,38.0423],[-90.3294,38.0944],[-90.3213,38.0949],[-90.296,38.088],[-90.2803,38.0988],[-90.2817,38.1034],[-90.2794,38.1048],[-90.2621,38.1079],[-90.256,38.1169],[-90.2499,38.1146],[-90.256,38.1262],[-90.2527,38.1278],[-90.2749,38.1576],[-90.2908,38.1705],[-90.3316,38.1876],[-90.3596,38.2245],[-90.3664,38.2459],[-90.3727,38.2862],[-90.3725,38.3234],[-90.3682,38.3403],[-90.3413,38.3882],[-90.3479,38.4054],[-90.3481,38.4306],[-90.3469,38.4362],[-90.3357,38.4482],[-90.3361,38.4535],[-90.3536,38.4582],[-90.391,38.4506],[-90.3907,38.4554],[-90.3947,38.4585],[-90.4042,38.4529],[-90.4112,38.4534],[-90.4226,38.4821],[-90.4079,38.4833],[-90.4053,38.5006],[-90.5911,38.5017],[-90.6027,38.4796],[-90.6137,38.4713],[-90.6263,38.4759],[-90.6337,38.4858],[-90.6556,38.4867],[-90.6607,38.4792],[-90.6547,38.4561],[-90.6646,38.4488],[-90.6788,38.4459],[-90.6865,38.4475],[-90.6769,38.4553],[-90.6805,38.4584],[-90.6887,38.4531],[-90.6878,38.4604],[-90.6969,38.4719],[-90.7178,38.4688],[-90.7143,38.4751],[-90.7171,38.4783],[-90.7235,38.4821],[-90.732,38.4822],[-90.7362,38.4668],[-90.7376,38.4159],[-90.7735,38.2407]]]}},{"type":"Feature","properties":{"fips":"29101","name":"Johnson"},"geometry":{"type":"Polygon","coordinates":[[[-94.1283,38.6778],[-94.1294,38.6559],[-94.1164,38.6555],[-94.1197,38.5687],[-93.511,38.5562],[-93.5092,38.645],[-93.4931,38.8992],[-93.4986,38.8993],[-93.4973,38.9284],[-93.8347,38.9379],[-93.8363,38.9087],[-94.1142,38.9173],[-94.1283,38.6778]]]}},{"type":"Feature","properties":{"fips":"29103","name":"Knox"},"geometry":{"type":"Polygon","coordinates":[[[-92.3493,40.2398],[-92.3486,40.2158],[-92.3465,40.2159],[-92.3453,40.038],[-92.3429,40.0372],[-92.3447,39.9533],[-92.1773,39.9545],[-91.9527,39.9494],[-91.9472,40.2138],[-91.9517,40.2139],[-91.9497,40.3008],[-92.1786,40.3042],[-92.3478,40.3028],[-92.3493,40.2398]]]}},{"type":"Feature","properties":{"fips":"29105","name":"Laclede"},"geometry":{"type":"Polygon","coordinates":[[[-92.8595,37.7376],[-92.8599,37.7212],[-92.8463,37.721],[-92.8535,37.484],[-92.2523,37.4729],[-92.2489,37.6485],[-92.4137,37.7142],[-92.4092,37.8592],[-92.4218,37.8587],[-92.4265,37.8511],[-92.4495,37.8354],[-92.453,37.8241],[-92.4804,37.829],[-92.5015,37.8277],[-92.5135,37.8109],[-92.5175,37.8109],[-92.5175,37.8132],[-92.5317,37.8111],[-92.5396,37.8021],[-92.5491,37.8005],[-92.5653,37.807],[-92.5645,37.8123],[-92.5716,37.8236],[-92.5854,37.828],[-92.5893,37.8345],[-92.6001,37.8403],[-92.5992,37.8518],[-92.6087,37.8561],[-92.6147,37.8635],[-92.6144,37.8715],[-92.6187,37.8738],[-92.6202,37.8925],[-92.8554,37.8957],[-92.8595,37.7376]]]}},{"type":"Feature","properties":{"fips":"29107","name":"Lafayette"},"geometry":{"type":"Polygon","coordinates":[[[-94.1143,38.9285],[-94.1142,38.9173],[-93.8363,38.9087],[-93.8347,38.9379],[-93.4973,38.9284],[-93.4772,39.2928],[-93.492,39.2829],[-93.4963,39.27],[-93.4866,39.2339],[-93.4879,39.2289],[-93.492,39.2235],[-93.5058,39.2167],[-93.5515,39.217],[-93.5632,39.22],[-93.5689,39.2286],[-93.585,39.2404],[-93.6284,39.2432],[-93.6364,39.2472],[-93.6434,39.2454],[-93.6538,39.248],[-93.6572,39.2459],[-93.658,39.2385],[-93.6816,39.2312],[-93.6894,39.2247],[-93.697,39.2119],[-93.7112,39.2063],[-93.746,39.2095],[-93.7844,39.2002],[-93.8242,39.2149],[-93.8554,39.2129],[-93.8752,39.2041],[-93.8994,39.1845],[-93.9278,39.1844],[-93.94,39.1797],[-93.9444,39.1702],[-93.9424,39.1581],[-93.9583,39.1452],[-93.967,39.1424],[-93.9791,39.1455],[-93.9889,39.1528],[-93.9834,39.1685],[-93.9624,39.1834],[-93.9618,39.1921],[-93.972,39.2022],[-93.9801,39.2059],[-94.032,39.19],[-94.036,39.185],[-94.0355,39.1775],[-94.0257,39.165],[-94.0242,39.1545],[-94.0456,39.1408],[-94.059,39.1348],[-94.0786,39.1342],[-94.1048,39.1435],[-94.1143,38.9285]]]}},{"type":"Feature","properties":{"fips":"29109","name":"Lawrence"},"geometry":{"type":"Polygon","coordinates":[[[-94.0627,36.937],[-94.0627,36.9318],[-93.611,36.9228],[-93.6051,37.2815],[-94.0523,37.2901],[-94.0627,36.937]]]}},{"type":"Feature","properties":{"fips":"29111","name":"Lewis"},"geometry":{"type":"Polygon","coordinates":[[[-91.9525,39.9812],[-91.9527,39.9494],[-91.4355,39.9453],[-91.4589,39.979],[-91.4653,39.984],[-91.4692,39.9953],[-91.4949,40.0365],[-91.4896,40.0574],[-91.5092,40.1219],[-91.5117,40.1471],[-91.5082,40.1577],[-91.5131,40.1785],[-91.5111,40.1888],[-91.5045,40.1983],[-91.5073,40.2093],[-91.5043,40.2243],[-91.5065,40.2363],[-91.4973,40.2488],[-91.9508,40.2572],[-91.9517,40.2139],[-91.9472,40.2138],[-91.9525,39.9812]]]}},{"type":"Feature","properties":{"fips":"29113","name":"Lincoln"},"geometry":{"type":"Polygon","coordinates":[[[-91.2638,39.0076],[-91.2643,38.9928],[-91.1884,38.9921],[-91.1893,38.9322],[-91.1102,38.9319],[-91.1113,38.8727],[-90.9585,38.8709],[-90.9576,38.8933],[-90.9497,38.8949],[-90.9402,38.8865],[-90.9373,38.8881],[-90.9332,38.8851],[-90.9078,38.8909],[-90.9012,38.8893],[-90.9005,38.886],[-90.8712,38.8887],[-90.8629,38.8873],[-90.8604,38.8819],[-90.8558,38.8847],[-90.8502,38.8801],[-90.8513,38.8836],[-90.8447,38.884],[-90.8354,38.88],[-90.8366,38.8841],[-90.8311,38.8782],[-90.8178,38.876],[-90.8062,38.879],[-90.8102,38.8856],[-90.8083,38.8996],[-90.7992,38.9014],[-90.7975,38.9051],[-90.8044,38.9111],[-90.7913,38.9179],[-90.782,38.9186],[-90.7764,38.923],[-90.7567,38.9198],[-90.743,38.9304],[-90.7288,38.9311],[-90.7241,38.9244],[-90.7346,38.9197],[-90.7357,38.9162],[-90.7246,38.9152],[-90.7239,38.9087],[-90.7142,38.9099],[-90.7081,38.9026],[-90.6993,38.9079],[-90.7062,38.9135],[-90.7157,38.9123],[-90.7175,38.9154],[-90.7143,38.9182],[-90.7038,38.9212],[-90.6972,38.9161],[-90.6846,38.9156],[-90.6896,38.9236],[-90.6975,38.9282],[-90.6966,38.9328],[-90.6634,38.9342],[-90.6759,38.9621],[-90.6782,38.9919],[-90.7136,39.054],[-90.7021,39.0656],[-90.7004,39.0718],[-90.6827,39.0883],[-90.6811,39.1006],[-90.6861,39.1178],[-90.7029,39.1387],[-90.7079,39.1509],[-90.7105,39.1764],[-90.7174,39.1974],[-90.7171,39.2139],[-90.7218,39.2241],[-91.1829,39.2272],[-91.1855,39.139],[-91.2602,39.1398],[-91.2638,39.0076]]]}},{"type":"Feature","properties":{"fips":"29115","name":"Linn"},"geometry":{"type":"Polygon","coordinates":[[[-93.3647,39.7208],[-93.3648,39.7038],[-93.0828,39.7067],[-92.8579,39.7],[-92.8475,40.0373],[-93.362,40.0331],[-93.3647,39.7208]]]}},{"type":"Feature","properties":{"fips":"29117","name":"Livingston"},"geometry":{"type":"Polygon","coordinates":[[[-93.762,39.9596],[-93.7584,39.6114],[-93.2833,39.6155],[-93.2781,39.6156],[-93.281,39.6191],[-93.2793,39.6226],[-93.2681,39.6195],[-93.2618,39.6227],[-93.2616,39.6292],[-93.2848,39.6545],[-93.2831,39.6564],[-93.2758,39.6518],[-93.2734,39.6548],[-93.2859,39.6668],[-93.282,39.6708],[-93.2847,39.673],[-93.2805,39.6777],[-93.2832,39.6788],[-93.2793,39.6816],[-93.2874,39.6833],[-93.2834,39.6834],[-93.2853,39.6852],[-93.2731,39.6953],[-93.2648,39.6976],[-93.267,39.7036],[-93.3648,39.7038],[-93.3614,39.9676],[-93.762,39.9596]]]}},{"type":"Feature","properties":{"fips":"29119","name":"McDonald"},"geometry":{"type":"Polygon","coordinates":[[[-94.6183,36.7666],[-94.6179,36.4994],[-94.0771,36.4987],[-94.0671,36.7477],[-94.6183,36.7666]]]}},{"type":"Feature","properties":{"fips":"29121","name":"Macon"},"geometry":{"type":"Polygon","coordinates":[[[-92.8571,39.7294],[-92.8579,39.7],[-92.6893,39.6981],[-92.6921,39.6103],[-92.2993,39.6053],[-92.2879,39.9525],[-92.3447,39.9533],[-92.3429,40.0372],[-92.8475,40.0373],[-92.8571,39.7294]]]}},{"type":"Feature","properties":{"fips":"29123","name":"Madison"},"geometry":{"type":"Polygon","coordinates":[[[-90.5486,37.3823],[-90.5497,37.3176],[-90.3462,37.3146],[-90.2364,37.3163],[-90.1457,37.3121],[-90.1442,37.4901],[-90.1385,37.5412],[-90.1468,37.5971],[-90.1468,37.6416],[-90.535,37.6436],[-90.5351,37.5994],[-90.5474,37.5984],[-90.5486,37.3823]]]}},{"type":"Feature","properties":{"fips":"29125","name":"Maries"},"geometry":{"type":"Polygon","coordinates":[[[-92.1974,38.1893],[-92.1978,38.1615],[-92.1814,38.1612],[-92.1854,38.0151],[-91.9663,38.0097],[-91.9583,38.0363],[-91.9537,38.0402],[-91.9419,38.0416],[-91.9352,38.0309],[-91.9139,38.043],[-91.8969,38.0479],[-91.8951,38.0512],[-91.7474,38.0533],[-91.6324,38.051],[-91.6306,38.1535],[-91.6449,38.1537],[-91.6447,38.2885],[-91.7573,38.2887],[-91.7753,38.292],[-91.8631,38.2936],[-91.884,38.2899],[-92.0121,38.2882],[-92.1957,38.2922],[-92.1974,38.1893]]]}},{"type":"Feature","properties":{"fips":"29127","name":"Marion"},"geometry":{"type":"Polygon","coordinates":[[[-91.8468,39.6649],[-91.8467,39.6585],[-91.7142,39.6575],[-91.7155,39.6865],[-91.3067,39.6849],[-91.3453,39.7094],[-91.37,39.7325],[-91.37,39.745],[-91.3651,39.7587],[-91.3657,39.7749],[-91.3616,39.7875],[-91.368,39.8004],[-91.378,39.8113],[-91.4295,39.8378],[-91.4361,39.8455],[-91.4464,39.8704],[-91.4469,39.883],[-91.4435,39.8936],[-91.4209,39.9149],[-91.4188,39.9221],[-91.4218,39.933],[-91.4355,39.9453],[-91.8404,39.9482],[-91.8468,39.6649]]]}},{"type":"Feature","properties":{"fips":"29129","name":"Mercer"},"geometry":{"type":"Polygon","coordinates":[[[-93.7747,40.5088],[-93.7745,40.4723],[-93.7648,40.4725],[-93.7633,40.264],[-93.3672,40.2663],[-93.367,40.4718],[-93.3748,40.4726],[-93.3744,40.5803],[-93.7743,40.5776],[-93.7747,40.5088]]]}},{"type":"Feature","properties":{"fips":"29131","name":"Miller"},"geometry":{"type":"Polygon","coordinates":[[[-92.6937,38.2608],[-92.6959,38.222],[-92.6756,38.2128],[-92.6401,38.213],[-92.6413,38.1716],[-92.6047,38.1707],[-92.6053,38.1399],[-92.5964,38.1398],[-92.5968,38.1108],[-92.5877,38.1106],[-92.588,38.0961],[-92.5697,38.0959],[-92.5703,38.0666],[-92.5521,38.0663],[-92.5524,38.0521],[-92.5336,38.0518],[-92.5339,38.0375],[-92.5156,38.0369],[-92.516,38.0223],[-92.1854,38.0163],[-92.1814,38.1612],[-92.1978,38.1615],[-92.1945,38.3355],[-92.2247,38.3357],[-92.233,38.3277],[-92.2502,38.3227],[-92.2888,38.3388],[-92.3026,38.3366],[-92.4084,38.3413],[-92.4035,38.4253],[-92.6302,38.431],[-92.6338,38.3481],[-92.6898,38.3485],[-92.6937,38.2608]]]}},{"type":"Feature","properties":{"fips":"29133","name":"Mississippi"},"geometry":{"type":"Polygon","coordinates":[[[-89.5199,36.8769],[-89.5197,36.8479],[-89.5021,36.8476],[-89.502,36.8328],[-89.4834,36.8328],[-89.4832,36.8178],[-89.4721,36.8178],[-89.4726,36.8033],[-89.4636,36.8033],[-89.4632,36.7889],[-89.4456,36.7893],[-89.4459,36.7676],[-89.4369,36.7679],[-89.4369,36.7605],[-89.4281,36.7607],[-89.4279,36.7465],[-89.4188,36.7467],[-89.4188,36.7394],[-89.4014,36.7308],[-89.4006,36.7175],[-89.3917,36.7174],[-89.3915,36.7029],[-89.3737,36.7029],[-89.3732,36.6882],[-89.3641,36.6882],[-89.3643,36.674],[-89.3549,36.6737],[-89.3551,36.6667],[-89.3462,36.6668],[-89.346,36.6518],[-89.337,36.6521],[-89.337,36.6449],[-89.3275,36.645],[-89.3276,36.6322],[-89.3134,36.6201],[-89.2946,36.5937],[-89.2717,36.5714],[-89.26,36.5651],[-89.2365,36.5668],[-89.2273,36.5694],[-89.2136,36.5801],[-89.2026,36.6016],[-89.1977,36.6289],[-89.1591,36.6664],[-89.1719,36.6725],[-89.168,36.6782],[-89.1695,36.6889],[-89.1995,36.716],[-89.201,36.7258],[-89.1978,36.7394],[-89.1845,36.7536],[-89.1691,36.7595],[-89.1304,36.7517],[-89.1261,36.7517],[-89.1192,36.7598],[-89.1161,36.7724],[-89.1235,36.7853],[-89.1559,36.7891],[-89.1711,36.7981],[-89.1787,36.8099],[-89.1789,36.8314],[-89.1704,36.8415],[-89.1595,36.8425],[-89.1535,36.8466],[-89.138,36.8473],[-89.1319,36.8574],[-89.1176,36.8874],[-89.1008,36.944],[-89.0996,36.9645],[-89.1095,36.9766],[-89.1251,36.9835],[-89.17,36.9703],[-89.1855,36.9735],[-89.1921,36.98],[-89.2008,37.0162],[-89.2341,37.0373],[-89.2549,37.072],[-89.2599,37.0641],[-89.3077,37.0697],[-89.3108,37.0579],[-89.3048,37.0476],[-89.2777,37.0361],[-89.26,37.0233],[-89.2576,37.0155],[-89.2662,36.9963],[-89.2786,36.9887],[-89.2921,36.9922],[-89.3133,37.0096],[-89.3472,37.0091],[-89.3473,37.002],[-89.3743,36.9943],[-89.3751,36.9649],[-89.4113,36.9648],[-89.4115,36.9501],[-89.4299,36.9503],[-89.43,36.9356],[-89.4654,36.9357],[-89.4652,36.9062],[-89.5015,36.9063],[-89.5015,36.8769],[-89.5199,36.8769]]]}},{"type":"Feature","properties":{"fips":"29135","name":"Moniteau"},"geometry":{"type":"Polygon","coordinates":[[[-92.8419,38.6031],[-92.8419,38.5968],[-92.6252,38.4308],[-92.4952,38.4278],[-92.3949,38.7391],[-92.4068,38.7527],[-92.4086,38.7702],[-92.3846,38.787],[-92.3796,38.8001],[-92.3813,38.8087],[-92.3879,38.8179],[-92.4212,38.8198],[-92.4399,38.8313],[-92.4567,38.8603],[-92.4796,38.8774],[-92.4746,38.9024],[-92.4984,38.9221],[-92.6167,38.6945],[-92.6171,38.68],[-92.8398,38.6849],[-92.8419,38.6031]]]}},{"type":"Feature","properties":{"fips":"29137","name":"Monroe"},"geometry":{"type":"Polygon","coordinates":[[[-92.31,39.3488],[-92.0922,39.3408],[-91.718,39.3391],[-91.7119,39.5991],[-91.7163,39.5994],[-91.7152,39.6576],[-92.185,39.6629],[-92.1867,39.6041],[-92.3009,39.6053],[-92.31,39.3488]]]}},{"type":"Feature","properties":{"fips":"29139","name":"Montgomery"},"geometry":{"type":"Polygon","coordinates":[[[-91.6464,38.7162],[-91.6472,38.7034],[-91.6252,38.7007],[-91.5877,38.6822],[-91.5522,38.6763],[-91.5026,38.695],[-91.5011,38.7047],[-91.4878,38.7131],[-91.4723,38.7076],[-91.4531,38.7093],[-91.4576,38.7063],[-91.4186,38.7098],[-91.4158,38.8453],[-91.2649,38.8438],[-91.2602,39.1398],[-91.6296,39.1479],[-91.6464,38.7162]]]}},{"type":"Feature","properties":{"fips":"29141","name":"Morgan"},"geometry":{"type":"Polygon","coordinates":[[[-93.0771,38.274],[-93.0777,38.2631],[-93.0611,38.2716],[-93.0463,38.2678],[-93.0165,38.2449],[-93.0057,38.2227],[-92.9842,38.2197],[-92.9849,38.2114],[-93.012,38.2102],[-93.02,38.2048],[-93.0223,38.1986],[-93.0169,38.1913],[-93.0062,38.186],[-92.9866,38.1908],[-92.9757,38.2035],[-92.9637,38.2255],[-92.9569,38.2295],[-92.9378,38.2252],[-92.932,38.2202],[-92.932,38.2162],[-92.9388,38.2085],[-92.9566,38.2037],[-92.963,38.1972],[-92.7645,38.1896],[-92.756,38.2125],[-92.749,38.2176],[-92.7314,38.2216],[-92.7186,38.2201],[-92.7072,38.224],[-92.6959,38.222],[-92.6898,38.3485],[-92.6338,38.3481],[-92.6302,38.431],[-92.6252,38.4308],[-92.8419,38.5968],[-92.8398,38.684],[-92.9505,38.6858],[-93.06,38.6931],[-93.0771,38.274]]]}},{"type":"Feature","properties":{"fips":"29143","name":"New Madrid"},"geometry":{"type":"Polygon","coordinates":[[[-89.9713,36.3931],[-89.9725,36.3896],[-89.9134,36.3865],[-89.7682,36.386],[-89.7662,36.3899],[-89.7556,36.3848],[-89.7521,36.3864],[-89.7491,36.397],[-89.7545,36.4017],[-89.7458,36.4043],[-89.7436,36.422],[-89.7349,36.4272],[-89.7255,36.4272],[-89.6958,36.4164],[-89.6874,36.4064],[-89.6708,36.4],[-89.6397,36.4008],[-89.611,36.4112],[-89.5923,36.4038],[-89.5837,36.383],[-89.5633,36.3696],[-89.5632,36.367],[-89.5539,36.3672],[-89.5542,36.36],[-89.5451,36.36],[-89.545,36.3368],[-89.5318,36.3392],[-89.519,36.3486],[-89.5096,36.3751],[-89.514,36.3849],[-89.5423,36.4201],[-89.5455,36.4307],[-89.5434,36.4388],[-89.5234,36.4566],[-89.5195,36.4754],[-89.5603,36.5254],[-89.5712,36.5473],[-89.5668,36.5642],[-89.5526,36.5772],[-89.5425,36.5806],[-89.5276,36.5811],[-89.5001,36.5763],[-89.4791,36.5682],[-89.4678,36.5468],[-89.4659,36.5299],[-89.4725,36.5137],[-89.4867,36.495],[-89.4941,36.4732],[-89.4862,36.4616],[-89.4717,36.457],[-89.4604,36.4581],[-89.4368,36.4744],[-89.4198,36.4939],[-89.3987,36.5423],[-89.3959,36.5596],[-89.3828,36.5836],[-89.3755,36.6157],[-89.3655,36.6251],[-89.3565,36.6284],[-89.3276,36.6322],[-89.3275,36.645],[-89.337,36.6449],[-89.337,36.6521],[-89.346,36.6518],[-89.3462,36.6668],[-89.3551,36.6667],[-89.3549,36.6737],[-89.3643,36.674],[-89.3641,36.6882],[-89.3732,36.6882],[-89.3737,36.7029],[-89.3915,36.7029],[-89.3917,36.7174],[-89.4006,36.7175],[-89.4014,36.7308],[-89.4188,36.7394],[-89.4188,36.7467],[-89.4279,36.7465],[-89.4281,36.7607],[-89.4369,36.7605],[-89.4369,36.7679],[-89.4459,36.7676],[-89.4456,36.7893],[-89.4632,36.7889],[-89.4636,36.8033],[-89.4726,36.8033],[-89.4721,36.8178],[-89.4832,36.8178],[-89.4834,36.8328],[-89.502,36.8328],[-89.5021,36.8476],[-89.5197,36.8479],[-89.5198,36.8696],[-89.5676,36.8709],[-89.6046,36.8662],[-89.6037,36.8622],[-89.606,36.8617],[-89.7048,36.8593],[-89.7001,36.7429],[-89.7027,36.7391],[-89.701,36.6275],[-89.9588,36.6293],[-89.9633,36.6255],[-89.9632,36.6012],[-89.9579,36.5883],[-89.9539,36.5456],[-89.9605,36.5275],[-89.9608,36.5001],[-89.9566,36.4806],[-89.9608,36.4668],[-89.9573,36.4555],[-89.9624,36.4423],[-89.9661,36.4158],[-89.9635,36.4124],[-89.9713,36.3931]]]}},{"type":"Feature","properties":{"fips":"29145","name":"Newton"},"geometry":{"type":"Polygon","coordinates":[[[-94.6187,36.8801],[-94.6183,36.7666],[-94.0689,36.7478],[-94.0592,37.0481],[-94.6179,37.0568],[-94.6187,36.8801]]]}},{"type":"Feature","properties":{"fips":"29147","name":"Nodaway"},"geometry":{"type":"Polygon","coordinates":[[[-95.2023,40.5785],[-95.202,40.4791],[-95.1777,40.4789],[-95.1806,40.2617],[-95.0716,40.2609],[-95.0727,40.2576],[-95.0678,40.2554],[-95.0756,40.2515],[-95.0719,40.2475],[-95.0736,40.2434],[-95.0666,40.2431],[-95.0708,40.2454],[-95.0671,40.2473],[-95.0579,40.2391],[-95.0679,40.2258],[-95.0673,40.2129],[-95.0638,40.2059],[-95.0683,40.2045],[-95.0749,40.1888],[-95.0712,40.1796],[-95.066,40.1778],[-95.0681,40.1752],[-95.0635,40.1762],[-95.0606,40.1717],[-95.0672,40.1677],[-95.0602,40.1613],[-95.0657,40.151],[-95.0589,40.1504],[-95.0595,40.1481],[-95.0643,40.1484],[-95.0602,40.1451],[-95.06,40.1385],[-95.0555,40.1415],[-95.056,40.136],[-95.0495,40.1379],[-95.0529,40.1328],[-95.0472,40.1338],[-95.0431,40.1301],[-94.6056,40.1263],[-94.5985,40.3867],[-94.6086,40.3868],[-94.6084,40.4724],[-94.6319,40.4725],[-94.632,40.5712],[-95.2023,40.5785]]]}},{"type":"Feature","properties":{"fips":"29149","name":"Oregon"},"geometry":{"type":"Polygon","coordinates":[[[-91.6783,36.6251],[-91.678,36.6067],[-91.6723,36.6066],[-91.6723,36.4995],[-91.1265,36.4977],[-91.1196,36.7801],[-91.1175,36.7801],[-91.1159,36.8237],[-91.2248,36.8257],[-91.2228,36.8839],[-91.6581,36.8887],[-91.66,36.7875],[-91.6742,36.7878],[-91.6783,36.6251]]]}},{"type":"Feature","properties":{"fips":"29151","name":"Osage"},"geometry":{"type":"Polygon","coordinates":[[[-92.1952,38.3089],[-92.1957,38.2922],[-92.0121,38.2882],[-91.884,38.2899],[-91.8631,38.2936],[-91.7753,38.292],[-91.7573,38.2887],[-91.6447,38.2885],[-91.6404,38.7038],[-91.6655,38.702],[-91.702,38.7078],[-91.7323,38.7059],[-91.7597,38.6852],[-91.8144,38.6818],[-91.8606,38.6682],[-91.8774,38.6577],[-91.8937,38.6341],[-91.9439,38.5971],[-91.982,38.5876],[-92.009,38.5709],[-92.0035,38.5603],[-92.0189,38.559],[-92.0249,38.5536],[-92.0289,38.5381],[-92.0271,38.5287],[-92.0083,38.4971],[-92.0105,38.4875],[-92.0206,38.4763],[-92.0435,38.4665],[-92.0737,38.4667],[-92.1104,38.4574],[-92.1276,38.4609],[-92.1473,38.4741],[-92.161,38.4733],[-92.1674,38.4697],[-92.1689,38.4668],[-92.1577,38.439],[-92.1493,38.4312],[-92.1216,38.4173],[-92.115,38.4019],[-92.1218,38.3913],[-92.1334,38.3846],[-92.1606,38.377],[-92.1807,38.3784],[-92.1932,38.3708],[-92.1952,38.3089]]]}},{"type":"Feature","properties":{"fips":"29153","name":"Ozark"},"geometry":{"type":"Polygon","coordinates":[[[-92.7704,36.5735],[-92.7723,36.4978],[-92.1204,36.4989],[-92.1123,36.7942],[-92.7649,36.8061],[-92.7704,36.5735]]]}},{"type":"Feature","properties":{"fips":"29155","name":"Pemiscot"},"geometry":{"type":"Polygon","coordinates":[[[-89.9617,36.294],[-89.9594,35.999],[-89.7069,36.001],[-89.6886,36.0292],[-89.6788,36.0846],[-89.6666,36.0958],[-89.6283,36.1069],[-89.6019,36.1195],[-89.594,36.1272],[-89.5916,36.1441],[-89.5944,36.1555],[-89.607,36.1712],[-89.6926,36.225],[-89.7053,36.2366],[-89.7035,36.2434],[-89.6952,36.2528],[-89.678,36.2483],[-89.6525,36.2507],[-89.6024,36.2381],[-89.5775,36.2423],[-89.5622,36.2509],[-89.5447,36.2475],[-89.5347,36.2526],[-89.5355,36.2705],[-89.5395,36.2774],[-89.5448,36.2805],[-89.5543,36.2778],[-89.5785,36.2883],[-89.6118,36.3091],[-89.6203,36.323],[-89.6158,36.3361],[-89.6057,36.3422],[-89.5816,36.3424],[-89.545,36.3368],[-89.5451,36.36],[-89.5542,36.36],[-89.5539,36.3672],[-89.5632,36.367],[-89.5633,36.3696],[-89.5837,36.383],[-89.5923,36.4038],[-89.611,36.4112],[-89.6397,36.4008],[-89.6708,36.4],[-89.6874,36.4064],[-89.6958,36.4164],[-89.7255,36.4272],[-89.7349,36.4272],[-89.7436,36.422],[-89.7458,36.4043],[-89.7545,36.4017],[-89.7491,36.397],[-89.7521,36.3864],[-89.7556,36.3848],[-89.7662,36.3899],[-89.7682,36.386],[-89.9613,36.3888],[-89.9617,36.294]]]}},{"type":"Feature","properties":{"fips":"29157","name":"Perry"},"geometry":{"type":"Polygon","coordinates":[[[-90.1468,37.6386],[-90.1468,37.5974],[-89.8166,37.5999],[-89.8027,37.6025],[-89.8002,37.6064],[-89.7975,37.6004],[-89.8015,37.5927],[-89.7918,37.5925],[-89.7863,37.5987],[-89.7821,37.5918],[-89.7655,37.5916],[-89.7607,37.5878],[-89.7561,37.5923],[-89.7371,37.5906],[-89.7407,37.5992],[-89.735,37.6016],[-89.7221,37.5954],[-89.7193,37.5879],[-89.7146,37.5902],[-89.7148,37.5968],[-89.7096,37.5993],[-89.6976,37.5942],[-89.687,37.5956],[-89.6841,37.5935],[-89.6864,37.5884],[-89.6811,37.5846],[-89.6777,37.5845],[-89.6757,37.5916],[-89.6722,37.5834],[-89.6644,37.5907],[-89.665,37.5984],[-89.6475,37.5977],[-89.6389,37.6036],[-89.6377,37.5977],[-89.6416,37.5922],[-89.6399,37.5872],[-89.6362,37.5869],[-89.6345,37.5906],[-89.6258,37.5885],[-89.6243,37.5937],[-89.6165,37.5926],[-89.6089,37.5974],[-89.6072,37.6029],[-89.6028,37.6032],[-89.6036,37.5921],[-89.5928,37.583],[-89.5965,37.579],[-89.5927,37.5751],[-89.5835,37.5819],[-89.5822,37.577],[-89.585,37.5742],[-89.5815,37.571],[-89.5554,37.5768],[-89.5434,37.567],[-89.5384,37.5695],[-89.5413,37.5718],[-89.5386,37.5743],[-89.5281,37.564],[-89.5217,37.5662],[-89.5208,37.5812],[-89.5165,37.5845],[-89.4861,37.5809],[-89.4775,37.5859],[-89.476,37.5902],[-89.4784,37.5989],[-89.5066,37.6251],[-89.5177,37.6412],[-89.5161,37.668],[-89.512,37.681],[-89.5167,37.6928],[-89.5314,37.7003],[-89.5833,37.7133],[-89.5966,37.7329],[-89.6156,37.7424],[-89.6173,37.7497],[-89.6495,37.7455],[-89.6634,37.7501],[-89.668,37.7595],[-89.6612,37.7757],[-89.6604,37.7863],[-89.6696,37.7999],[-89.7175,37.8257],[-89.7399,37.8469],[-89.7541,37.8464],[-89.782,37.8551],[-89.7864,37.8517],[-89.7961,37.8595],[-89.8004,37.8686],[-89.7977,37.8742],[-89.7993,37.8815],[-89.8448,37.9056],[-89.8629,37.8969],[-89.8815,37.8796],[-89.9018,37.8698],[-89.9232,37.8707],[-89.9382,37.8751],[-89.9999,37.8215],[-90.1105,37.6713],[-90.1468,37.6417],[-90.1468,37.6386]]]}},{"type":"Feature","properties":{"fips":"29159","name":"Pettis"},"geometry":{"type":"Polygon","coordinates":[[[-93.5124,38.5198],[-93.5127,38.5125],[-93.2919,38.5063],[-93.2905,38.5354],[-93.0673,38.53],[-93.0505,38.9282],[-93.4964,38.9428],[-93.4986,38.8993],[-93.4931,38.8992],[-93.5092,38.645],[-93.5124,38.5198]]]}},{"type":"Feature","properties":{"fips":"29161","name":"Phelps"},"geometry":{"type":"Polygon","coordinates":[[[-92.0286,37.7068],[-92.0293,37.6025],[-91.8091,37.5989],[-91.8062,37.7913],[-91.5288,37.789],[-91.525,38.1524],[-91.6306,38.1535],[-91.6324,38.051],[-91.7474,38.0533],[-91.8951,38.0512],[-91.8969,38.0479],[-91.9139,38.043],[-91.9352,38.0309],[-91.9419,38.0416],[-91.9537,38.0402],[-91.9583,38.0363],[-91.9663,38.0097],[-92.0212,38.0106],[-92.0286,37.7068]]]}},{"type":"Feature","properties":{"fips":"29163","name":"Pike"},"geometry":{"type":"Polygon","coordinates":[[[-91.4604,39.4507],[-91.409,39.1425],[-91.1855,39.139],[-91.1829,39.2272],[-90.7218,39.2241],[-90.7216,39.2327],[-90.73,39.2559],[-90.7516,39.2654],[-90.7676,39.28],[-90.7757,39.2928],[-90.7907,39.3029],[-90.7935,39.3095],[-90.8169,39.3205],[-90.8475,39.3453],[-90.8938,39.3673],[-90.9049,39.3794],[-90.9287,39.3875],[-90.9408,39.404],[-90.9938,39.423],[-91.0383,39.4484],[-91.0594,39.4689],[-91.0643,39.4946],[-91.0798,39.5077],[-91.1003,39.5387],[-91.1483,39.5458],[-91.1586,39.553],[-91.1684,39.5649],[-91.178,39.5982],[-91.2037,39.5984],[-91.4604,39.4507]]]}},{"type":"Feature","properties":{"fips":"29165","name":"Platte"},"geometry":{"type":"Polygon","coordinates":[[[-95.1014,39.5333],[-95.0827,39.5167],[-95.0522,39.5],[-95.0471,39.475],[-95.0375,39.4637],[-95.0158,39.4528],[-94.9902,39.4462],[-94.9821,39.4406],[-94.973,39.4217],[-94.9479,39.4086],[-94.9462,39.3956],[-94.942,39.3895],[-94.9231,39.3845],[-94.9018,39.3928],[-94.8918,39.3933],[-94.885,39.3898],[-94.8793,39.3798],[-94.8814,39.3704],[-94.9025,39.3604],[-94.91,39.3525],[-94.9053,39.312],[-94.9,39.3002],[-94.8871,39.2865],[-94.8463,39.2685],[-94.8315,39.2563],[-94.8257,39.2417],[-94.8351,39.2207],[-94.8238,39.2099],[-94.8117,39.2066],[-94.7815,39.2061],[-94.7631,39.1799],[-94.7419,39.1702],[-94.7141,39.1704],[-94.6803,39.1843],[-94.6691,39.182],[-94.6592,39.1741],[-94.6614,39.1627],[-94.6558,39.1557],[-94.6398,39.1537],[-94.6158,39.16],[-94.6017,39.1596],[-94.6012,39.5302],[-95.1014,39.5333]]]}},{"type":"Feature","properties":{"fips":"29167","name":"Polk"},"geometry":{"type":"Polygon","coordinates":[[[-93.632,37.7496],[-93.6324,37.7423],[-93.6095,37.7418],[-93.6212,37.4274],[-93.1825,37.4172],[-93.1732,37.7297],[-93.1914,37.73],[-93.1879,37.8027],[-93.5741,37.8133],[-93.5732,37.828],[-93.6284,37.8294],[-93.632,37.7496]]]}},{"type":"Feature","properties":{"fips":"29169","name":"Pulaski"},"geometry":{"type":"Polygon","coordinates":[[[-92.4122,37.7571],[-92.4137,37.7142],[-92.2489,37.6485],[-92.2495,37.6045],[-92.0293,37.6025],[-92.0212,38.0106],[-92.4063,38.0212],[-92.4122,37.7571]]]}},{"type":"Feature","properties":{"fips":"29171","name":"Putnam"},"geometry":{"type":"Polygon","coordinates":[[[-93.3752,40.5527],[-93.3748,40.4726],[-93.367,40.4718],[-93.3669,40.383],[-92.8553,40.3859],[-92.8556,40.3427],[-92.7246,40.3427],[-92.6842,40.3435],[-92.6807,40.3464],[-92.6858,40.3511],[-92.686,40.3583],[-92.682,40.361],[-92.6872,40.3742],[-92.6827,40.376],[-92.6876,40.3812],[-92.6852,40.3826],[-92.686,40.3943],[-92.6759,40.3954],[-92.6721,40.3915],[-92.6661,40.3965],[-92.6797,40.4038],[-92.6771,40.408],[-92.674,40.4032],[-92.6732,40.4077],[-92.6646,40.4094],[-92.6709,40.41],[-92.6786,40.4184],[-92.6936,40.4229],[-92.6932,40.4256],[-92.7015,40.4301],[-92.6945,40.4357],[-92.7013,40.4366],[-92.7101,40.444],[-92.7014,40.4494],[-92.7041,40.4493],[-92.7032,40.4535],[-92.7093,40.46],[-92.6994,40.4639],[-92.7023,40.466],[-92.6983,40.4692],[-92.704,40.4684],[-92.7011,40.4729],[-92.7046,40.4742],[-92.7044,40.4768],[-92.7014,40.4765],[-92.7019,40.4831],[-92.6981,40.4794],[-92.6961,40.4872],[-92.6906,40.4887],[-92.6851,40.4853],[-92.6853,40.4894],[-92.676,40.4995],[-92.6823,40.4994],[-92.68,40.5021],[-92.6862,40.503],[-92.6832,40.5115],[-92.6856,40.5107],[-92.6846,40.5152],[-92.6883,40.5169],[-92.6809,40.5189],[-92.6779,40.516],[-92.6708,40.5195],[-92.6751,40.5235],[-92.6815,40.522],[-92.6994,40.5279],[-92.6981,40.5313],[-92.7076,40.535],[-92.7016,40.5351],[-92.7037,40.5376],[-92.7009,40.5376],[-92.6924,40.5503],[-92.6844,40.5485],[-92.683,40.5603],[-92.6911,40.5647],[-92.6953,40.5606],[-92.7054,40.5581],[-92.7175,40.5583],[-92.7165,40.5619],[-92.7193,40.5636],[-92.7098,40.5629],[-92.6898,40.5704],[-92.6901,40.5754],[-92.6945,40.5683],[-92.6957,40.5714],[-92.7021,40.571],[-92.7022,40.581],[-92.7212,40.584],[-92.7146,40.5896],[-93.3744,40.5803],[-93.3752,40.5527]]]}},{"type":"Feature","properties":{"fips":"29173","name":"Ralls"},"geometry":{"type":"Polygon","coordinates":[[[-91.718,39.3391],[-91.7185,39.3245],[-91.4382,39.3187],[-91.4604,39.4507],[-91.2037,39.5984],[-91.178,39.5982],[-91.1859,39.6051],[-91.2293,39.6209],[-91.2761,39.6658],[-91.3025,39.6796],[-91.3067,39.6849],[-91.7155,39.6865],[-91.7163,39.5994],[-91.7119,39.5991],[-91.718,39.3391]]]}},{"type":"Feature","properties":{"fips":"29175","name":"Randolph"},"geometry":{"type":"Polygon","coordinates":[[[-92.7063,39.3417],[-92.7074,39.3216],[-92.4302,39.2488],[-92.3145,39.2465],[-92.3009,39.6053],[-92.6966,39.6104],[-92.7063,39.3417]]]}},{"type":"Feature","properties":{"fips":"29177","name":"Ray"},"geometry":{"type":"Polygon","coordinates":[[[-94.2122,39.2343],[-94.2125,39.2071],[-94.2049,39.2065],[-94.1847,39.2143],[-94.1735,39.2138],[-94.1694,39.2106],[-94.1753,39.1972],[-94.1857,39.188],[-94.1858,39.181],[-94.1337,39.1712],[-94.114,39.1497],[-94.1034,39.1424],[-94.0786,39.1342],[-94.0566,39.1355],[-94.0242,39.1545],[-94.0257,39.165],[-94.0355,39.1775],[-94.036,39.185],[-94.032,39.19],[-93.9801,39.2059],[-93.9668,39.1983],[-93.9615,39.1875],[-93.9679,39.1781],[-93.9834,39.1685],[-93.9889,39.1528],[-93.9687,39.1423],[-93.9583,39.1452],[-93.9424,39.1581],[-93.9444,39.1702],[-93.94,39.1797],[-93.9278,39.1844],[-93.8994,39.1845],[-93.8752,39.2041],[-93.8554,39.2129],[-93.8242,39.2149],[-93.7844,39.2002],[-93.7585,39.207],[-93.7592,39.5246],[-94.2084,39.5272],[-94.2122,39.2343]]]}},{"type":"Feature","properties":{"fips":"29179","name":"Reynolds"},"geometry":{"type":"Polygon","coordinates":[[[-91.3132,37.555],[-91.3142,37.5051],[-91.211,37.5019],[-91.2119,37.4153],[-91.1754,37.4148],[-91.1762,37.3126],[-91.1584,37.3129],[-91.1593,37.255],[-91.1232,37.2545],[-91.126,37.1995],[-91.1073,37.1992],[-91.1072,37.2032],[-91.0883,37.2032],[-91.0889,37.1742],[-91.0706,37.1776],[-91.071,37.1627],[-91.0343,37.1693],[-91.0351,37.1402],[-91.0172,37.1435],[-91.0178,37.0957],[-90.9999,37.1004],[-91.0,37.0976],[-90.9636,37.0974],[-90.9645,37.0536],[-90.7796,37.0503],[-90.779,37.1376],[-90.7568,37.1377],[-90.7559,37.1667],[-90.7371,37.1664],[-90.7344,37.2271],[-90.7355,37.271],[-90.7536,37.2701],[-90.7497,37.3728],[-90.7729,37.3737],[-90.7687,37.603],[-90.9868,37.6039],[-91.1007,37.5878],[-91.3125,37.5928],[-91.3132,37.555]]]}},{"type":"Feature","properties":{"fips":"29181","name":"Ripley"},"geometry":{"type":"Polygon","coordinates":[[[-91.1268,36.5001],[-91.1265,36.4977],[-90.5762,36.4984],[-90.5748,36.5919],[-90.593,36.5924],[-90.5922,36.6794],[-90.6284,36.6795],[-90.6275,36.811],[-90.8957,36.8129],[-91.0077,36.8201],[-91.0079,36.8243],[-91.0253,36.8221],[-91.1159,36.8237],[-91.1175,36.7801],[-91.1196,36.7801],[-91.1268,36.5001]]]}},{"type":"Feature","properties":{"fips":"29183","name":"St. Charles"},"geometry":{"type":"Polygon","coordinates":[[[-90.9638,38.5781],[-90.9645,38.5475],[-90.9329,38.535],[-90.9109,38.5359],[-90.8419,38.566],[-90.813,38.5856],[-90.7736,38.5946],[-90.7564,38.6107],[-90.7507,38.6251],[-90.7424,38.6346],[-90.7058,38.6473],[-90.703,38.6575],[-90.6793,38.6656],[-90.6745,38.6822],[-90.6605,38.6886],[-90.6238,38.6903],[-90.6039,38.682],[-90.5886,38.6805],[-90.57,38.6841],[-90.5547,38.6816],[-90.5393,38.6868],[-90.5304,38.6986],[-90.5319,38.7303],[-90.4958,38.7483],[-90.4852,38.7592],[-90.4732,38.791],[-90.4481,38.822],[-90.4406,38.8276],[-90.431,38.8298],[-90.3823,38.8219],[-90.3622,38.8279],[-90.345,38.8494],[-90.3426,38.8665],[-90.3364,38.8826],[-90.3245,38.8903],[-90.3142,38.8911],[-90.2937,38.8855],[-90.2561,38.8521],[-90.1889,38.8185],[-90.1776,38.8189],[-90.1551,38.8297],[-90.1416,38.8294],[-90.1268,38.8213],[-90.1177,38.8057],[-90.1094,38.8435],[-90.1133,38.8493],[-90.1664,38.8763],[-90.1976,38.8876],[-90.223,38.9074],[-90.2502,38.9193],[-90.2775,38.9237],[-90.3095,38.9241],[-90.3958,38.96],[-90.4401,38.9674],[-90.4508,38.9678],[-90.4721,38.9588],[-90.4824,38.9445],[-90.4827,38.9347],[-90.487,38.926],[-90.5075,38.9028],[-90.517,38.8988],[-90.544,38.8751],[-90.5666,38.8688],[-90.5834,38.869],[-90.6251,38.8887],[-90.6359,38.9039],[-90.6635,38.9274],[-90.6634,38.9342],[-90.6966,38.9328],[-90.6975,38.9282],[-90.6896,38.9236],[-90.6846,38.9156],[-90.6972,38.9161],[-90.7038,38.9212],[-90.7143,38.9182],[-90.7175,38.9154],[-90.7157,38.9123],[-90.7062,38.9135],[-90.6993,38.9079],[-90.7081,38.9026],[-90.7142,38.9099],[-90.7239,38.9087],[-90.7246,38.9152],[-90.7357,38.9162],[-90.7346,38.9197],[-90.7241,38.9244],[-90.7288,38.9311],[-90.743,38.9304],[-90.7567,38.9198],[-90.7764,38.923],[-90.782,38.9186],[-90.7913,38.9179],[-90.8044,38.9111],[-90.7975,38.9051],[-90.7992,38.9014],[-90.8083,38.8996],[-90.8102,38.8856],[-90.8062,38.879],[-90.8178,38.876],[-90.8311,38.8782],[-90.8366,38.8841],[-90.8354,38.88],[-90.8447,38.884],[-90.8513,38.8836],[-90.8502,38.8801],[-90.8558,38.8847],[-90.8604,38.8819],[-90.8629,38.8873],[-90.8712,38.8887],[-90.9005,38.886],[-90.9012,38.8893],[-90.9078,38.8909],[-90.9332,38.8851],[-90.9373,38.8881],[-90.9402,38.8865],[-90.9497,38.8949],[-90.9565,38.8942],[-90.9622,38.7742],[-90.9638,38.5781]]]}},{"type":"Feature","properties":{"fips":"29185","name":"St. Clair"},"geometry":{"type":"Polygon","coordinates":[[[-94.0647,37.9211],[-94.0657,37.901],[-93.8086,37.8928],[-93.8117,37.8348],[-93.5723,37.8279],[-93.5687,37.9149],[-93.5121,37.9135],[-93.4973,38.1991],[-93.5133,38.1995],[-93.5117,38.2065],[-93.5141,38.2076],[-93.5386,38.2055],[-93.5609,38.2208],[-93.5695,38.2189],[-93.5708,38.2154],[-93.5573,38.2011],[-94.0499,38.214],[-94.0647,37.9211]]]}},{"type":"Feature","properties":{"fips":"29186","name":"Ste. Genevieve"},"geometry":{"type":"Polygon","coordinates":[[[-90.4591,37.8789],[-90.3483,37.7935],[-90.2002,37.6696],[-90.1542,37.6998],[-90.1105,37.6713],[-89.9999,37.8215],[-89.9386,37.8743],[-89.9525,37.8832],[-89.9736,37.9177],[-89.9749,37.9267],[-89.9623,37.9344],[-89.9596,37.9402],[-89.9474,37.9403],[-89.9325,37.9475],[-89.9254,37.9541],[-89.9251,37.96],[-89.9359,37.9596],[-89.9408,37.971],[-89.9789,37.9628],[-90.0001,37.9646],[-90.0317,37.995],[-90.0524,38.0062],[-90.0573,38.0144],[-90.065,38.0169],[-90.0883,38.0158],[-90.1174,38.0317],[-90.1262,38.0407],[-90.1264,38.0549],[-90.1308,38.0623],[-90.1579,38.0748],[-90.1722,38.0696],[-90.1772,38.0712],[-90.2187,38.0944],[-90.2431,38.1127],[-90.2527,38.1278],[-90.256,38.1262],[-90.2499,38.1146],[-90.256,38.1169],[-90.2621,38.1079],[-90.2794,38.1048],[-90.2817,38.1034],[-90.2803,38.0988],[-90.2879,38.0918],[-90.296,38.088],[-90.3213,38.0949],[-90.3294,38.0944],[-90.416,38.0423],[-90.3229,37.9817],[-90.4591,37.8789]]]}},{"type":"Feature","properties":{"fips":"29187","name":"St. Francois"},"geometry":{"type":"Polygon","coordinates":[[[-90.6478,37.6446],[-90.1468,37.6416],[-90.1105,37.6713],[-90.1542,37.6998],[-90.2002,37.6696],[-90.3483,37.7935],[-90.4591,37.8789],[-90.3229,37.9817],[-90.417,38.0427],[-90.5833,38.0035],[-90.6281,38.0077],[-90.6249,38.0128],[-90.6165,38.0135],[-90.6128,38.017],[-90.6168,38.0233],[-90.6214,38.0475],[-90.6122,38.0701],[-90.6252,38.076],[-90.6325,38.0741],[-90.64,38.0765],[-90.6478,37.6446]]]}},{"type":"Feature","properties":{"fips":"29189","name":"St. Louis"},"geometry":{"type":"Polygon","coordinates":[[[-90.7361,38.4698],[-90.7362,38.4669],[-90.7305,38.4827],[-90.7171,38.4783],[-90.7143,38.4751],[-90.7178,38.4688],[-90.6969,38.4719],[-90.6878,38.4604],[-90.6887,38.4531],[-90.6805,38.4584],[-90.6769,38.4553],[-90.6865,38.4475],[-90.6788,38.4459],[-90.6646,38.4488],[-90.6547,38.4561],[-90.6607,38.4792],[-90.6556,38.4867],[-90.6337,38.4858],[-90.6263,38.4759],[-90.6137,38.4713],[-90.6027,38.4796],[-90.5911,38.5017],[-90.4053,38.5006],[-90.4079,38.4833],[-90.4226,38.4821],[-90.4112,38.4534],[-90.4042,38.4529],[-90.3947,38.4585],[-90.3907,38.4554],[-90.391,38.4506],[-90.3536,38.4582],[-90.3361,38.4535],[-90.3357,38.4482],[-90.3469,38.4362],[-90.3481,38.4306],[-90.3479,38.4054],[-90.3413,38.3882],[-90.2928,38.4287],[-90.2688,38.5062],[-90.2578,38.532],[-90.2669,38.5343],[-90.271,38.5387],[-90.2727,38.5486],[-90.2898,38.5571],[-90.307,38.5722],[-90.3136,38.5788],[-90.3205,38.5942],[-90.3109,38.6182],[-90.3018,38.6556],[-90.2518,38.7189],[-90.2218,38.7301],[-90.2057,38.7418],[-90.1864,38.7615],[-90.1842,38.7743],[-90.1667,38.7723],[-90.1231,38.798],[-90.1177,38.8057],[-90.1231,38.816],[-90.1328,38.8251],[-90.1509,38.8299],[-90.1776,38.8189],[-90.1889,38.8185],[-90.2561,38.8521],[-90.2937,38.8855],[-90.3142,38.8911],[-90.3245,38.8903],[-90.3364,38.8826],[-90.3426,38.8665],[-90.345,38.8494],[-90.3503,38.8403],[-90.3658,38.8259],[-90.3823,38.8219],[-90.4193,38.8293],[-90.4406,38.8276],[-90.4732,38.791],[-90.4827,38.7635],[-90.4921,38.7518],[-90.5319,38.7303],[-90.5304,38.6986],[-90.5393,38.6868],[-90.5547,38.6816],[-90.57,38.6841],[-90.5886,38.6805],[-90.6039,38.682],[-90.6238,38.6903],[-90.6605,38.6886],[-90.6745,38.6822],[-90.6793,38.6656],[-90.703,38.6575],[-90.7058,38.6473],[-90.7323,38.6393],[-90.7361,38.4698]]]}},{"type":"Feature","properties":{"fips":"29195","name":"Saline"},"geometry":{"type":"Polygon","coordinates":[[[-93.4964,38.9428],[-93.0505,38.9282],[-93.0482,38.9726],[-92.9305,39.0685],[-92.9178,39.0736],[-92.9074,39.0842],[-92.909,39.0955],[-92.9341,39.0993],[-92.9428,39.1035],[-92.9452,39.1071],[-92.9438,39.1217],[-92.9416,39.1259],[-92.9223,39.1309],[-92.9117,39.1382],[-92.9061,39.1476],[-92.9048,39.1662],[-92.8967,39.1759],[-92.8752,39.187],[-92.8611,39.2002],[-92.8514,39.2179],[-92.8491,39.2306],[-92.8549,39.2355],[-92.8629,39.2364],[-92.8928,39.2225],[-92.9117,39.2239],[-92.92,39.233],[-92.9157,39.25],[-92.9167,39.2579],[-92.9236,39.2634],[-92.9474,39.2701],[-92.9578,39.2793],[-92.9534,39.3028],[-92.9598,39.3125],[-92.9716,39.3156],[-93.0238,39.3131],[-93.052,39.3207],[-93.068,39.3303],[-93.0744,39.338],[-93.0781,39.348],[-93.0771,39.3655],[-93.0878,39.3789],[-93.1061,39.3837],[-93.1252,39.3777],[-93.1396,39.3786],[-93.152,39.3872],[-93.1643,39.405],[-93.1775,39.4117],[-93.1931,39.4093],[-93.1993,39.4043],[-93.201,39.3989],[-93.1902,39.3818],[-93.1896,39.3704],[-93.2252,39.3289],[-93.2301,39.3279],[-93.2403,39.3364],[-93.2527,39.3388],[-93.2638,39.331],[-93.2678,39.3251],[-93.2669,39.3193],[-93.2777,39.3115],[-93.2942,39.3092],[-93.3248,39.3106],[-93.3369,39.307],[-93.3441,39.2972],[-93.3444,39.2894],[-93.329,39.2655],[-93.3291,39.2551],[-93.3367,39.2481],[-93.3536,39.2428],[-93.3681,39.2333],[-93.3963,39.2263],[-93.4114,39.2311],[-93.4152,39.2349],[-93.4152,39.2418],[-93.4045,39.2542],[-93.4048,39.2633],[-93.4139,39.2678],[-93.4442,39.2685],[-93.4507,39.273],[-93.4599,39.2894],[-93.4772,39.2928],[-93.4964,38.9428]]]}},{"type":"Feature","properties":{"fips":"29197","name":"Schuyler"},"geometry":{"type":"Polygon","coordinates":[[[-92.7212,40.584],[-92.7022,40.581],[-92.7021,40.571],[-92.6957,40.5714],[-92.6945,40.5683],[-92.6901,40.5754],[-92.6922,40.5675],[-92.7098,40.5629],[-92.7193,40.5636],[-92.7165,40.5619],[-92.7175,40.5583],[-92.7054,40.5581],[-92.6953,40.5606],[-92.6911,40.5647],[-92.683,40.5603],[-92.6844,40.5485],[-92.6924,40.5503],[-92.7009,40.5376],[-92.7037,40.5376],[-92.7016,40.5351],[-92.7076,40.535],[-92.6981,40.5313],[-92.6994,40.5279],[-92.6815,40.522],[-92.6751,40.5235],[-92.6708,40.5195],[-92.6779,40.516],[-92.6809,40.5189],[-92.6883,40.5169],[-92.6846,40.5152],[-92.6856,40.5107],[-92.6832,40.5115],[-92.6862,40.503],[-92.68,40.5021],[-92.6823,40.4994],[-92.676,40.4995],[-92.6853,40.4894],[-92.6851,40.4853],[-92.6906,40.4887],[-92.6961,40.4872],[-92.6981,40.4794],[-92.7012,40.484],[-92.7014,40.4765],[-92.7044,40.4768],[-92.7046,40.4742],[-92.7011,40.4729],[-92.704,40.4684],[-92.6983,40.4692],[-92.7023,40.466],[-92.6994,40.4639],[-92.7093,40.46],[-92.7032,40.4535],[-92.7041,40.4493],[-92.7014,40.4494],[-92.7101,40.444],[-92.7013,40.4366],[-92.6945,40.4357],[-92.7009,40.4287],[-92.6901,40.4209],[-92.6786,40.4184],[-92.6709,40.41],[-92.6646,40.4094],[-92.6732,40.4077],[-92.674,40.4032],[-92.676,40.4074],[-92.6793,40.4069],[-92.6797,40.4038],[-92.6662,40.3977],[-92.6721,40.3915],[-92.6759,40.3954],[-92.686,40.3943],[-92.6852,40.3826],[-92.6876,40.3812],[-92.6827,40.376],[-92.6872,40.3742],[-92.682,40.361],[-92.686,40.3583],[-92.6858,40.3511],[-92.6807,40.3464],[-92.6842,40.3435],[-92.35,40.3465],[-92.3508,40.5973],[-92.7146,40.5896],[-92.7212,40.584]]]}},{"type":"Feature","properties":{"fips":"29199","name":"Scotland"},"geometry":{"type":"Polygon","coordinates":[[[-92.3514,40.4916],[-92.3499,40.3027],[-92.1786,40.3042],[-91.9497,40.3008],[-91.9431,40.6058],[-92.3508,40.5973],[-92.3514,40.4916]]]}},{"type":"Feature","properties":{"fips":"29201","name":"Scott"},"geometry":{"type":"Polygon","coordinates":[[[-89.7868,37.0878],[-89.7664,37.0507],[-89.7569,37.0496],[-89.7584,37.0383],[-89.7523,37.0358],[-89.7539,37.0299],[-89.7463,37.0278],[-89.7466,37.0234],[-89.7356,37.0106],[-89.7371,37.0072],[-89.7212,36.9901],[-89.7189,36.9822],[-89.7225,36.9758],[-89.7181,36.9748],[-89.7206,36.969],[-89.7149,36.9521],[-89.7122,36.9529],[-89.7096,36.9468],[-89.7031,36.9475],[-89.6951,36.9387],[-89.6922,36.9407],[-89.6926,36.9354],[-89.6867,36.928],[-89.6898,36.9241],[-89.6847,36.923],[-89.6885,36.921],[-89.6866,36.9195],[-89.6897,36.9161],[-89.6871,36.914],[-89.6905,36.9134],[-89.6938,36.8996],[-89.6866,36.8848],[-89.6897,36.886],[-89.6973,36.8741],[-89.6898,36.8681],[-89.6924,36.866],[-89.6896,36.863],[-89.6916,36.8595],[-89.606,36.8617],[-89.6037,36.8622],[-89.6046,36.8662],[-89.5676,36.8709],[-89.5198,36.8696],[-89.5199,36.8769],[-89.5015,36.8769],[-89.5015,36.9063],[-89.4652,36.9062],[-89.4654,36.9357],[-89.43,36.9356],[-89.4299,36.9503],[-89.4115,36.9501],[-89.4113,36.9648],[-89.3751,36.9649],[-89.3743,36.9943],[-89.3473,37.002],[-89.3472,37.0091],[-89.3133,37.0096],[-89.3312,37.0199],[-89.3624,37.0302],[-89.3783,37.0396],[-89.3839,37.0464],[-89.3852,37.0577],[-89.3757,37.0805],[-89.3787,37.0946],[-89.3881,37.1075],[-89.4117,37.1225],[-89.4256,37.1382],[-89.4561,37.1881],[-89.4676,37.2182],[-89.4583,37.2404],[-89.4582,37.2471],[-89.4607,37.2506],[-89.4705,37.2534],[-89.4887,37.2515],[-89.4912,37.2465],[-89.5038,37.2475],[-89.5071,37.244],[-89.5108,37.2463],[-89.5183,37.2436],[-89.5205,37.2473],[-89.5464,37.2473],[-89.5465,37.2402],[-89.5835,37.2403],[-89.5835,37.2329],[-89.6203,37.233],[-89.6205,37.2183],[-89.6497,37.2183],[-89.6495,37.2062],[-89.6674,37.2061],[-89.6674,37.1988],[-89.686,37.1985],[-89.6858,37.184],[-89.7042,37.184],[-89.7038,37.155],[-89.722,37.1551],[-89.7218,37.1406],[-89.7585,37.1406],[-89.7582,37.126],[-89.7652,37.1261],[-89.7656,37.1186],[-89.7728,37.1127],[-89.7745,37.0973],[-89.7868,37.0878]]]}},{"type":"Feature","properties":{"fips":"29203","name":"Shannon"},"geometry":{"type":"Polygon","coordinates":[[[-91.6578,36.8896],[-91.2228,36.8839],[-91.2172,37.0862],[-91.1097,37.0841],[-91.1097,37.0867],[-91.0654,37.0885],[-91.0667,37.0938],[-91.0178,37.0957],[-91.0172,37.1435],[-91.0351,37.1402],[-91.0343,37.1693],[-91.071,37.1627],[-91.0706,37.1776],[-91.0889,37.1742],[-91.0883,37.2032],[-91.1072,37.2032],[-91.1073,37.1992],[-91.126,37.1995],[-91.1232,37.2545],[-91.1593,37.255],[-91.1584,37.3129],[-91.1762,37.3126],[-91.1754,37.4148],[-91.6466,37.4227],[-91.6477,37.2483],[-91.6516,37.2484],[-91.6533,37.1922],[-91.6578,36.8896]]]}},{"type":"Feature","properties":{"fips":"29205","name":"Shelby"},"geometry":{"type":"Polygon","coordinates":[[[-92.2985,39.6418],[-92.2993,39.6053],[-92.1867,39.6041],[-92.185,39.6629],[-91.8467,39.6585],[-91.8404,39.9482],[-92.1773,39.9545],[-92.2879,39.9525],[-92.2985,39.6418]]]}},{"type":"Feature","properties":{"fips":"29207","name":"Stoddard"},"geometry":{"type":"Polygon","coordinates":[[[-90.2598,36.9076],[-90.2548,36.9065],[-90.2533,36.8991],[-90.2474,36.8962],[-90.2497,36.8922],[-90.2452,36.8925],[-90.252,36.8877],[-90.253,36.8819],[-90.2481,36.8784],[-90.2532,36.8766],[-90.2567,36.8797],[-90.2533,36.8696],[-90.2449,36.8685],[-90.2398,36.8644],[-90.2409,36.8594],[-90.2382,36.8629],[-90.2351,36.8578],[-90.2305,36.8587],[-90.2306,36.8527],[-90.225,36.8545],[-90.2298,36.8501],[-90.2248,36.8467],[-90.2223,36.8505],[-90.2211,36.8457],[-90.2163,36.8428],[-90.219,36.8386],[-90.2224,36.8387],[-90.2244,36.8324],[-90.2175,36.8265],[-90.2218,36.8203],[-90.2176,36.8182],[-90.2123,36.8207],[-90.2103,36.8176],[-90.2163,36.8146],[-90.2081,36.8135],[-90.2091,36.8086],[-90.2028,36.8088],[-90.1979,36.8041],[-90.2037,36.8034],[-90.1976,36.7927],[-90.2026,36.7936],[-90.1997,36.787],[-90.2035,36.7864],[-90.201,36.7772],[-90.2062,36.7739],[-90.1986,36.7733],[-90.1964,36.7695],[-90.1894,36.772],[-90.1906,36.7632],[-90.1829,36.7593],[-90.1874,36.7558],[-90.1753,36.752],[-90.1766,36.7482],[-90.1725,36.7475],[-90.1778,36.7457],[-90.177,36.7422],[-90.1681,36.7423],[-90.1691,36.7356],[-90.1625,36.7342],[-90.165,36.7319],[-90.1613,36.7258],[-90.1645,36.7249],[-90.1581,36.723],[-90.156,36.716],[-90.1516,36.7163],[-90.1531,36.7093],[-90.1484,36.7106],[-90.1535,36.7027],[-90.1458,36.6989],[-90.1463,36.6952],[-90.1434,36.6989],[-90.1398,36.6961],[-90.1405,36.6933],[-90.1468,36.6937],[-90.1399,36.6869],[-90.1492,36.6842],[-90.1421,36.6805],[-90.1491,36.6792],[-90.1444,36.6734],[-90.1493,36.672],[-90.1404,36.6709],[-90.1429,36.6665],[-90.1368,36.6674],[-90.1345,36.6625],[-90.1373,36.6592],[-90.147,36.6575],[-90.1431,36.6521],[-90.1448,36.6495],[-90.1397,36.6483],[-90.1388,36.6424],[-90.1494,36.6407],[-90.1423,36.6382],[-90.1441,36.6338],[-90.1496,36.6335],[-90.1484,36.6307],[-89.701,36.6275],[-89.7027,36.7391],[-89.7001,36.7429],[-89.7048,36.8593],[-89.6916,36.8595],[-89.6896,36.863],[-89.6924,36.866],[-89.6898,36.8681],[-89.6973,36.8741],[-89.6897,36.886],[-89.6866,36.8848],[-89.6938,36.8996],[-89.6905,36.9134],[-89.6871,36.914],[-89.6897,36.9161],[-89.6866,36.9195],[-89.6885,36.921],[-89.6847,36.923],[-89.6898,36.9241],[-89.6867,36.928],[-89.6926,36.9354],[-89.6922,36.9407],[-89.6951,36.9387],[-89.7031,36.9475],[-89.7096,36.9468],[-89.7122,36.9529],[-89.7149,36.9521],[-89.7206,36.969],[-89.7181,36.9748],[-89.7225,36.9758],[-89.7189,36.9822],[-89.7212,36.9901],[-89.7371,37.0072],[-89.7356,37.0106],[-89.7466,37.0234],[-89.7463,37.0278],[-89.7539,37.0299],[-89.7523,37.0358],[-89.7584,37.0383],[-89.7581,37.0516],[-89.763,37.0489],[-89.7664,37.0507],[-89.779,37.0721],[-89.7781,37.0759],[-89.7859,37.0834],[-89.7868,37.0878],[-89.7745,37.0973],[-89.7728,37.1127],[-89.7656,37.1186],[-89.7652,37.1261],[-89.9596,37.1273],[-89.9592,37.0544],[-89.9959,37.0547],[-89.9957,37.0401],[-90.1485,37.0414],[-90.1494,37.0074],[-90.1679,37.0077],[-90.1685,36.9932],[-90.1863,36.9933],[-90.1866,36.9787],[-90.2049,36.9788],[-90.2052,36.9646],[-90.223,36.9646],[-90.2236,36.9358],[-90.2416,36.9359],[-90.2418,36.9218],[-90.2586,36.922],[-90.2575,36.912],[-90.2485,36.9108],[-90.2598,36.9076]]]}},{"type":"Feature","properties":{"fips":"29209","name":"Stone"},"geometry":{"type":"Polygon","coordinates":[[[-93.6129,36.8259],[-93.6129,36.8206],[-93.5738,36.82],[-93.5843,36.4989],[-93.3153,36.4984],[-93.3096,36.73],[-93.3044,36.8169],[-93.342,36.8173],[-93.3375,36.9925],[-93.6101,36.9958],[-93.6129,36.8259]]]}},{"type":"Feature","properties":{"fips":"29211","name":"Sullivan"},"geometry":{"type":"Polygon","coordinates":[[[-93.3673,40.3247],[-93.3666,40.0331],[-92.8562,40.0373],[-92.8553,40.3859],[-93.3669,40.383],[-93.3673,40.3247]]]}},{"type":"Feature","properties":{"fips":"29213","name":"Taney"},"geometry":{"type":"Polygon","coordinates":[[[-93.3149,36.5143],[-93.3153,36.4984],[-92.7723,36.4978],[-92.7649,36.8061],[-93.3044,36.8169],[-93.3096,36.73],[-93.3149,36.5143]]]}},{"type":"Feature","properties":{"fips":"29215","name":"Texas"},"geometry":{"type":"Polygon","coordinates":[[[-92.2532,37.3865],[-92.253,37.2548],[-92.2472,37.2549],[-92.2514,37.0597],[-91.9808,37.0556],[-91.8751,37.0507],[-91.6556,37.0489],[-91.6516,37.2484],[-91.6477,37.2483],[-91.6466,37.4227],[-91.755,37.4241],[-91.7548,37.5988],[-92.2495,37.6045],[-92.2532,37.3865]]]}},{"type":"Feature","properties":{"fips":"29217","name":"Vernon"},"geometry":{"type":"Polygon","coordinates":[[[-94.6178,37.7282],[-94.6176,37.6536],[-94.0735,37.6397],[-94.0687,37.7556],[-94.0733,37.7557],[-94.0733,37.7606],[-94.0583,38.0366],[-94.0632,38.0309],[-94.0694,38.0368],[-94.0828,38.0317],[-94.0886,38.0359],[-94.0864,38.0404],[-94.0938,38.0397],[-94.1019,38.0481],[-94.1081,38.0367],[-94.1188,38.0422],[-94.1155,38.0484],[-94.1247,38.0502],[-94.1322,38.0582],[-94.1501,38.0539],[-94.1574,38.0571],[-94.1694,38.0495],[-94.1918,38.0448],[-94.1961,38.0338],[-94.2007,38.0465],[-94.1954,38.0537],[-94.2095,38.0522],[-94.2155,38.0337],[-94.2239,38.0403],[-94.227,38.0345],[-94.2252,38.027],[-94.2366,38.026],[-94.2454,38.0292],[-94.2423,38.0326],[-94.2337,38.032],[-94.2408,38.0394],[-94.2305,38.0458],[-94.2394,38.0442],[-94.2406,38.0508],[-94.6141,38.0601],[-94.6178,37.7282]]]}},{"type":"Feature","properties":{"fips":"29219","name":"Warren"},"geometry":{"type":"Polygon","coordinates":[[[-91.4183,38.7208],[-91.4186,38.7098],[-91.3951,38.708],[-91.353,38.6956],[-91.3417,38.6974],[-91.3244,38.7084],[-91.3131,38.7067],[-91.2598,38.6666],[-91.233,38.6513],[-91.2269,38.6407],[-91.2285,38.6302],[-91.225,38.6208],[-91.183,38.6079],[-91.1251,38.5977],[-91.0773,38.6093],[-91.0559,38.6083],[-91.0372,38.5986],[-91.0141,38.566],[-90.9924,38.5551],[-90.9645,38.5475],[-90.9585,38.8709],[-91.1113,38.8727],[-91.1102,38.9319],[-91.1893,38.9322],[-91.1884,38.9921],[-91.2643,38.9928],[-91.2649,38.8438],[-91.4158,38.8453],[-91.4183,38.7208]]]}},{"type":"Feature","properties":{"fips":"29221","name":"Washington"},"geometry":{"type":"Polygon","coordinates":[[[-91.0976,37.8403],[-91.1,37.74],[-90.9825,37.7403],[-90.8741,37.7342],[-90.7621,37.7385],[-90.6451,37.7348],[-90.64,38.0765],[-90.662,38.0847],[-90.6519,38.0905],[-90.6574,38.0973],[-90.6605,38.0964],[-90.6636,38.0877],[-90.6848,38.0863],[-90.6854,38.0911],[-90.6762,38.0951],[-90.6814,38.1027],[-90.7802,38.2041],[-90.9702,38.2067],[-91.0958,38.2041],[-91.094,38.0013],[-91.0976,37.8403]]]}},{"type":"Feature","properties":{"fips":"29223","name":"Wayne"},"geometry":{"type":"Polygon","coordinates":[[[-90.7789,37.1078],[-90.7796,37.0503],[-90.7297,37.0495],[-90.7309,37.0004],[-90.713,37.0004],[-90.7134,36.9711],[-90.6954,36.9708],[-90.6969,36.9272],[-90.3527,36.9267],[-90.2418,36.9218],[-90.2416,36.9359],[-90.2236,36.9358],[-90.223,36.9646],[-90.2052,36.9646],[-90.2049,36.9788],[-90.1866,36.9787],[-90.1863,36.9933],[-90.1685,36.9932],[-90.1679,37.0077],[-90.1494,37.0074],[-90.1485,37.0414],[-90.1112,37.0412],[-90.1104,37.0859],[-90.2232,37.0865],[-90.2177,37.315],[-90.5497,37.3176],[-90.5506,37.2726],[-90.6423,37.2722],[-90.6618,37.2748],[-90.7355,37.271],[-90.7371,37.1664],[-90.7559,37.1667],[-90.7568,37.1377],[-90.779,37.1376],[-90.7789,37.1078]]]}},{"type":"Feature","properties":{"fips":"29225","name":"Webster"},"geometry":{"type":"Polygon","coordinates":[[[-93.0768,37.2707],[-93.0615,37.2698],[-93.0653,37.0887],[-92.9029,37.0852],[-92.9033,37.0707],[-92.6859,37.0671],[-92.679,37.2631],[-92.6923,37.2635],[-92.6867,37.4815],[-93.0716,37.4874],[-93.0768,37.2707]]]}},{"type":"Feature","properties":{"fips":"29227","name":"Worth"},"geometry":{"type":"Polygon","coordinates":[[[-94.632,40.5712],[-94.6319,40.4725],[-94.6084,40.4724],[-94.6086,40.3868],[-94.2143,40.3843],[-94.2146,40.4705],[-94.2316,40.4704],[-94.2322,40.5719],[-94.632,40.5712]]]}},{"type":"Feature","properties":{"fips":"29229","name":"Wright"},"geometry":{"type":"Polygon","coordinates":[[[-92.6919,37.2817],[-92.6923,37.2635],[-92.679,37.2631],[-92.6859,37.0671],[-92.2514,37.0597],[-92.2472,37.2549],[-92.253,37.2548],[-92.2523,37.4729],[-92.6867,37.4815],[-92.6919,37.2817]]]}},{"type":"Feature","properties":{"fips":"29510","name":"St. Louis City"},"geometry":{"type":"Polygon","coordinates":[[[-90.3205,38.5942],[-90.3136,38.5788],[-90.307,38.5722],[-90.2898,38.5571],[-90.2727,38.5486],[-90.271,38.5387],[-90.2669,38.5343],[-90.2578,38.532],[-90.2242,38.5751],[-90.1918,38.599],[-90.1788,38.6292],[-90.1777,38.6427],[-90.1864,38.6748],[-90.2092,38.7028],[-90.2119,38.718],[-90.2052,38.7321],[-90.1763,38.7544],[-90.1667,38.7723],[-90.1842,38.7743],[-90.1864,38.7615],[-90.2057,38.7418],[-90.2218,38.7301],[-90.2518,38.7189],[-90.3018,38.6556],[-90.3109,38.6182],[-90.3205,38.5942]]]}}]}